id,postal_cd,country_cd,city_name,state_abbrv,latitude,longitude
8350,20588,US,DHS,MD,,
8358,20601,US,Waldorf,MD,38.6136610000,-76.8705300000
8359,20602,US,Waldorf,MD,38.5864700000,-76.8989350000
8360,20603,US,Waldorf,MD,38.6258910000,-76.9782800000
8361,20604,US,Waldorf,MD,38.6247000000,-76.9395000000
8362,20606,US,Abell,MD,38.2506900000,-76.7486080000
8363,20607,US,Accokeek,MD,38.6602820000,-77.0010330000
8364,20608,US,Aquasco,MD,38.5818770000,-76.7117820000
8365,20609,US,Avenue,MD,38.2692800000,-76.7497180000
8366,20610,US,Barstow,MD,38.5243000000,-76.6167000000
8367,20611,US,Bel Alton,MD,38.4667910000,-76.9745450000
8368,20612,US,Benedict,MD,38.5157280000,-76.6773960000
8369,20613,US,Brandywine,MD,38.6505500000,-76.8144810000
8370,20615,US,Broomes Island,MD,38.4151240000,-76.5472540000
8371,20616,US,Bryans Road,MD,38.6538450000,-77.0920660000
8372,20617,US,Bryantown,MD,38.5420980000,-76.8602640000
8373,20618,US,Bushwood,MD,38.2919460000,-76.7955600000
8374,20619,US,California,MD,38.2894490000,-76.5307670000
8375,20620,US,Callaway,MD,38.2313680000,-76.5228680000
8376,20621,US,Chaptico,MD,38.3306980000,-76.7965960000
8377,20622,US,Charlotte Hall,MD,38.4476450000,-76.8234420000
8378,20623,US,Cheltenham,MD,38.7435660000,-76.8390130000
8379,20624,US,Clements,MD,38.3326320000,-76.7351270000
8380,20625,US,Cobb Island,MD,38.2624710000,-76.8509060000
8381,20626,US,Coltons Point,MD,38.2166840000,-76.7984730000
8382,20627,US,Compton,MD,38.2733000000,-76.6944000000
8383,20628,US,Dameron,MD,38.1489900000,-76.3491960000
8384,20629,US,Dowell,MD,38.3371060000,-76.4536990000
8385,20630,US,Drayden,MD,38.1635590000,-76.4756670000
8386,20632,US,Faulkner,MD,38.4331720000,-76.9644800000
8387,20634,US,Great Mills,MD,38.2430810000,-76.4942390000
8388,20635,US,Helen,MD,38.3989000000,-76.7199000000
8389,20636,US,Hollywood,MD,38.3499680000,-76.5738920000
8390,20637,US,Hughesville,MD,38.5235520000,-76.7863250000
8391,20639,US,Huntingtown,MD,38.6101040000,-76.5988680000
8392,20640,US,Indian Head,MD,38.5611430000,-77.1696830000
8393,20643,US,Ironsides,MD,38.4918000000,-77.1600000000
8394,20645,US,Issue,MD,38.2821720000,-76.9552820000
8395,20646,US,La Plata,MD,38.5118380000,-77.0067600000
8396,20650,US,Leonardtown,MD,38.2630750000,-76.6328990000
8397,20653,US,Lexington Park,MD,38.2414570000,-76.4305250000
8398,20656,US,Loveville,MD,38.3552920000,-76.6744620000
8399,20657,US,Lusby,MD,38.3778570000,-76.4432600000
8400,20658,US,Marbury,MD,38.5708780000,-77.1579560000
8401,20659,US,Mechanicsville,MD,38.4232410000,-76.6985000000
8402,20660,US,Morganza,MD,38.3756000000,-76.6958000000
8403,20661,US,Mount Victoria,MD,38.3533000000,-76.8961000000
8404,20662,US,Nanjemoy,MD,38.4334020000,-77.2193600000
8405,20664,US,Newburg,MD,38.3176380000,-76.9312820000
8406,20667,US,Park Hall,MD,38.2165540000,-76.4419540000
8407,20670,US,Patuxent River,MD,38.2859400000,-76.4186280000
8408,20674,US,Piney Point,MD,38.0885140000,-76.5345820000
8409,20675,US,Pomfret,MD,38.5818900000,-77.0117330000
8410,20676,US,Port Republic,MD,38.4950720000,-76.5446490000
8411,20677,US,Port Tobacco,MD,38.4964920000,-77.0435440000
8412,20678,US,Prince Frederick,MD,38.5087540000,-76.5955540000
8413,20680,US,Ridge,MD,38.1227970000,-76.3690300000
8414,20682,US,Rock Point,MD,38.2726000000,-76.8386000000
8415,20684,US,Saint Inigoes,MD,38.1402640000,-76.4082280000
8416,20685,US,Saint Leonard,MD,38.4332310000,-76.5327140000
8417,20686,US,Saint Marys City,MD,38.1867000000,-76.4348000000
8418,20687,US,Scotland,MD,38.0004780000,-76.3455430000
8419,20688,US,Solomons,MD,38.3295540000,-76.4678840000
8420,20689,US,Sunderland,MD,38.6631910000,-76.5860790000
8421,20690,US,Tall Timbers,MD,38.1576560000,-76.5279740000
8422,20692,US,Valley Lee,MD,38.1860380000,-76.5066410000
8423,20693,US,Welcome,MD,38.4398970000,-77.0897700000
8424,20695,US,White Plains,MD,38.5842820000,-76.9767140000
8425,20697,US,Southern Md Facility,MD,39.0314000000,-76.9083000000
8426,20701,US,Annapolis Junction,MD,39.1292280000,-76.7892120000
8427,20703,US,Lanham,MD,38.9666000000,-76.8622000000
8428,20704,US,Beltsville,MD,39.0347000000,-76.9076000000
8429,20705,US,Beltsville,MD,39.0432210000,-76.8861230000
8430,20706,US,Lanham,MD,38.9606590000,-76.8547330000
8431,20707,US,Laurel,MD,39.0969240000,-76.8829790000
8432,20708,US,Laurel,MD,39.0510060000,-76.8314800000
8433,20709,US,Laurel,MD,39.0995000000,-76.8486000000
8434,20710,US,Bladensburg,MD,38.9433910000,-76.9254600000
8435,20711,US,Lothian,MD,38.8009440000,-76.6447300000
8436,20712,US,Mount Rainier,MD,38.9427810000,-76.9665580000
8437,20714,US,North Beach,MD,38.7167660000,-76.5359690000
8438,20715,US,Bowie,MD,38.9926360000,-76.7389400000
8439,20716,US,Bowie,MD,38.9266830000,-76.7118040000
8440,20717,US,Bowie,MD,39.0064000000,-76.7795000000
8441,20718,US,Bowie,MD,39.0064000000,-76.7795000000
8442,20719,US,Bowie,MD,39.0064000000,-76.7795000000
8443,20720,US,Bowie,MD,38.9950050000,-76.7900130000
8444,20721,US,Bowie,MD,38.9185300000,-76.7861250000
8445,20722,US,Brentwood,MD,38.9347340000,-76.9503980000
8446,20723,US,Laurel,MD,39.1402860000,-76.8673780000
8447,20724,US,Laurel,MD,39.0955360000,-76.8021000000
8448,20725,US,Laurel,MD,39.0995000000,-76.8486000000
8449,20726,US,Laurel,MD,39.0995000000,-76.8486000000
8450,20731,US,Capitol Heights,MD,38.9876000000,-76.8808000000
8451,20732,US,Chesapeake Beach,MD,38.6598940000,-76.5392020000
8452,20733,US,Churchton,MD,38.8073120000,-76.5279600000
8453,20735,US,Clinton,MD,38.7394060000,-76.9118370000
8454,20736,US,Owings,MD,38.6894870000,-76.6152970000
8455,20737,US,Riverdale,MD,38.9624140000,-76.9153110000
8456,20738,US,Riverdale,MD,38.9633000000,-76.9316000000
8457,20740,US,College Park,MD,39.0012550000,-76.9257190000
8458,20741,US,College Park,MD,38.9808000000,-76.9373000000
8459,20742,US,College Park,MD,38.9899840000,-76.9421000000
8460,20743,US,Capitol Heights,MD,38.8871530000,-76.8924770000
8461,20744,US,Fort Washington,MD,38.7545280000,-77.0047620000
8462,20745,US,Oxon Hill,MD,38.8058650000,-76.9995250000
8463,20746,US,Suitland,MD,38.8354460000,-76.9122000000
8464,20747,US,District Heights,MD,38.8515600000,-76.8872970000
8465,20748,US,Temple Hills,MD,38.8177330000,-76.9398610000
8466,20749,US,Fort Washington,MD,38.7914000000,-76.9528000000
8467,20750,US,Oxon Hill,MD,38.8033000000,-76.9901000000
8468,20751,US,Deale,MD,38.7940020000,-76.5572620000
8469,20752,US,Suitland,MD,38.8501000000,-76.9271000000
8470,20753,US,District Heights,MD,38.8577000000,-76.8899000000
8471,20754,US,Dunkirk,MD,38.7348720000,-76.6477720000
8472,20755,US,Fort George G Meade,MD,39.0826060000,-76.7701920000
8473,20757,US,Temple Hills,MD,38.8096000000,-76.9272000000
8474,20758,US,Friendship,MD,38.7365640000,-76.5815480000
8475,20759,US,Fulton,MD,39.1623020000,-76.9277660000
8476,20762,US,Andrews Air Force Base,MD,38.8061080000,-76.8771770000
8477,20763,US,Savage,MD,39.1347600000,-76.8162390000
8478,20764,US,Shady Side,MD,38.8325120000,-76.5115620000
8479,20765,US,Galesville,MD,38.8435140000,-76.5475810000
8480,20768,US,Greenbelt,MD,39.0047000000,-76.8758000000
8481,20769,US,Glenn Dale,MD,38.9865420000,-76.8183220000
8482,20770,US,Greenbelt,MD,39.0015520000,-76.8876600000
8483,20771,US,Greenbelt,MD,38.9974300000,-76.8530140000
8484,20772,US,Upper Marlboro,MD,38.7810280000,-76.7788180000
8485,20773,US,Upper Marlboro,MD,38.8159000000,-76.7498000000
8486,20774,US,Upper Marlboro,MD,38.8922220000,-76.7680440000
8487,20775,US,Upper Marlboro,MD,38.8147000000,-76.7519000000
8488,20776,US,Harwood,MD,38.8695060000,-76.6083510000
8489,20777,US,Highland,MD,39.1762540000,-76.9730100000
8490,20778,US,West River,MD,38.8409930000,-76.5713540000
8491,20779,US,Tracys Landing,MD,38.7611200000,-76.5766130000
8492,20781,US,Hyattsville,MD,38.9411630000,-76.9353710000
8493,20782,US,Hyattsville,MD,38.9659470000,-76.9675480000
8494,20783,US,Hyattsville,MD,39.0035700000,-76.9710300000
8495,20784,US,Hyattsville,MD,38.9534860000,-76.8956250000
8496,20785,US,Hyattsville,MD,38.9227400000,-76.8876910000
8497,20787,US,Hyattsville,MD,39.0031000000,-76.9724000000
8498,20788,US,Hyattsville,MD,38.9558000000,-76.9456000000
8499,20790,US,Capitol Heights,MD,38.9876000000,-76.8806000000
8500,20791,US,Capitol Heights,MD,38.9876000000,-76.8806000000
8501,20792,US,Upper Marlboro,MD,38.8159000000,-76.7498000000
8502,20794,US,Jessup,MD,39.1436270000,-76.7893290000
8503,20797,US,Southern Md Facility,MD,39.0914000000,-76.8427000000
8504,20799,US,Capitol Heights,MD,38.8807000000,-76.8536000000
8505,20810,US,Bethesda,MD,38.9806000000,-77.1008000000
8506,20811,US,Bethesda,MD,38.9806000000,-77.1008000000
8507,20812,US,Glen Echo,MD,38.9684220000,-77.1423500000
8508,20813,US,Bethesda,MD,38.9806000000,-77.1008000000
8509,20814,US,Bethesda,MD,39.0048040000,-77.1024770000
8510,20815,US,Chevy Chase,MD,38.9842120000,-77.0791060000
8511,20816,US,Bethesda,MD,38.9539700000,-77.1354820000
8512,20817,US,Bethesda,MD,39.0033140000,-77.1595280000
8513,20818,US,Cabin John,MD,38.9770420000,-77.1628370000
8514,20824,US,Bethesda,MD,38.9806000000,-77.1008000000
8515,20825,US,Chevy Chase,MD,38.9806000000,-77.1008000000
8516,20827,US,Bethesda,MD,38.9806000000,-77.1008000000
8517,20830,US,Olney,MD,39.1533000000,-77.0674000000
8518,20832,US,Olney,MD,39.1510680000,-77.0719440000
8519,20833,US,Brookeville,MD,39.2209300000,-77.0560790000
8520,20837,US,Poolesville,MD,39.1165460000,-77.4149940000
8521,20838,US,Barnesville,MD,39.2335140000,-77.3509810000
8522,20839,US,Beallsville,MD,39.1823320000,-77.4202900000
8523,20841,US,Boyds,MD,39.1874400000,-77.3150620000
8524,20842,US,Dickerson,MD,39.1998720000,-77.4205500000
8525,20847,US,Rockville,MD,39.0839000000,-77.1534000000
8526,20848,US,Rockville,MD,39.0839000000,-77.1534000000
8527,20849,US,Rockville,MD,39.0839000000,-77.1534000000
8528,20850,US,Rockville,MD,39.0891600000,-77.1908840000
8529,20851,US,Rockville,MD,39.0782480000,-77.1237860000
8530,20852,US,Rockville,MD,39.0526140000,-77.1231530000
8531,20853,US,Rockville,MD,39.1072400000,-77.0989060000
8532,20854,US,Potomac,MD,39.0247840000,-77.2465530000
8533,20855,US,Derwood,MD,39.1410700000,-77.1380080000
8534,20857,US,Rockville,MD,39.0839000000,-77.1534000000
8535,20859,US,Potomac,MD,39.0183000000,-77.2089000000
8536,20860,US,Sandy Spring,MD,39.1499120000,-77.0296680000
8537,20861,US,Ashton,MD,39.1491220000,-76.9913400000
8538,20862,US,Brinklow,MD,39.1804830000,-77.0143890000
8539,20866,US,Burtonsville,MD,39.1064280000,-76.9251800000
8540,20868,US,Spencerville,MD,39.1224340000,-76.9690720000
8541,20871,US,Clarksburg,MD,39.2656210000,-77.2863270000
8542,20872,US,Damascus,MD,39.2924260000,-77.2222890000
8543,20874,US,Germantown,MD,39.1394750000,-77.2880290000
8544,20875,US,Germantown,MD,39.1733000000,-77.2716000000
8545,20876,US,Germantown,MD,39.2090110000,-77.2372020000
8546,20877,US,Gaithersburg,MD,39.1392950000,-77.1804520000
8547,20878,US,Gaithersburg,MD,39.1118620000,-77.2452320000
8548,20879,US,Gaithersburg,MD,39.1763510000,-77.1831730000
8549,20880,US,Washington Grove,MD,39.1392400000,-77.1742530000
8550,20882,US,Gaithersburg,MD,39.2290950000,-77.1423790000
8551,20883,US,Gaithersburg,MD,39.1743000000,-77.1915000000
8552,20884,US,Gaithersburg,MD,39.1434000000,-77.2018000000
8553,20885,US,Gaithersburg,MD,39.1434000000,-77.2018000000
8554,20886,US,Montgomery Village,MD,39.1751380000,-77.1867750000
8555,20889,US,Bethesda,MD,38.9808000000,-77.1006000000
8556,20891,US,Kensington,MD,39.0257000000,-77.0768000000
8557,20892,US,Bethesda,MD,39.0003000000,-77.1056000000
8558,20894,US,Bethesda,MD,38.9808000000,-77.1006000000
8559,20895,US,Kensington,MD,39.0266700000,-77.0810170000
8560,20896,US,Garrett Park,MD,39.0348090000,-77.0925500000
8561,20897,US,Suburb Maryland Fac,MD,39.0876000000,-77.0578000000
8562,20898,US,Gaithersburg,MD,39.1434000000,-77.2018000000
8563,20899,US,Gaithersburg,MD,39.1434000000,-77.2018000000
8564,20901,US,Silver Spring,MD,39.0249040000,-77.0082870000
8565,20902,US,Silver Spring,MD,39.0410700000,-77.0450490000
8566,20903,US,Silver Spring,MD,39.0140740000,-76.9822650000
8567,20904,US,Silver Spring,MD,39.0612290000,-76.9788790000
8568,20905,US,Silver Spring,MD,39.1118160000,-76.9935500000
8569,20906,US,Silver Spring,MD,39.0852800000,-77.0589490000
8570,20907,US,Silver Spring,MD,38.9909000000,-77.0267000000
8571,20908,US,Silver Spring,MD,38.9909000000,-77.0267000000
8572,20910,US,Silver Spring,MD,39.0033500000,-77.0354440000
8573,20911,US,Silver Spring,MD,38.9909000000,-77.0267000000
8574,20912,US,Takoma Park,MD,38.9826350000,-77.0038870000
8575,20913,US,Takoma Park,MD,38.9829000000,-77.0209000000
8576,20914,US,Silver Spring,MD,39.0756000000,-77.0022000000
8577,20915,US,Silver Spring,MD,38.9909000000,-77.0267000000
8578,20916,US,Silver Spring,MD,39.0796000000,-77.0735000000
8579,20918,US,Silver Spring,MD,38.9909000000,-77.0267000000
8580,20993,US,Silver Spring,MD,39.0361340000,-76.9888010000
8581,20997,US,Silver Spring,MD,38.9936000000,-77.0263000000
8582,21001,US,Aberdeen,MD,39.4982580000,-76.1988850000
8583,21005,US,Aberdeen Proving Ground,MD,39.4367460000,-76.1574200000
8584,21009,US,Abingdon,MD,39.4733520000,-76.2870360000
8585,21010,US,Gunpowder,MD,39.3673490000,-76.2958930000
8586,21012,US,Arnold,MD,39.0430020000,-76.4942100000
8587,21013,US,Baldwin,MD,39.5159050000,-76.4834460000
8588,21014,US,Bel Air,MD,39.5381920000,-76.3526220000
8589,21015,US,Bel Air,MD,39.5474500000,-76.2944040000
8590,21017,US,Belcamp,MD,39.4752710000,-76.2373420000
8591,21018,US,Benson,MD,39.5054000000,-76.3869000000
8592,21020,US,Boring,MD,39.5314000000,-76.8232000000
8593,21022,US,Brooklandville,MD,39.4204000000,-76.6704000000
8594,21023,US,Butler,MD,39.5354000000,-76.7286000000
8595,21027,US,Chase,MD,39.3636000000,-76.3714000000
8596,21028,US,Churchville,MD,39.5669440000,-76.2362520000
8597,21029,US,Clarksville,MD,39.2037440000,-76.9511260000
8598,21030,US,Cockeysville,MD,39.4918550000,-76.6649580000
8599,21031,US,Hunt Valley,MD,39.4860980000,-76.6575030000
8600,21032,US,Crownsville,MD,39.0299610000,-76.6074380000
8601,21034,US,Darlington,MD,39.6479420000,-76.2144590000
8602,21035,US,Davidsonville,MD,38.9367880000,-76.6422060000
8603,21036,US,Dayton,MD,39.2358480000,-77.0081320000
8604,21037,US,Edgewater,MD,38.9228550000,-76.5441190000
8605,21040,US,Edgewood,MD,39.4328120000,-76.2924240000
8606,21041,US,Ellicott City,MD,39.2673000000,-76.7986000000
8607,21042,US,Ellicott City,MD,39.2766980000,-76.8994060000
8608,21043,US,Ellicott City,MD,39.2569020000,-76.7917390000
8609,21044,US,Columbia,MD,39.2044200000,-76.8813530000
8610,21045,US,Columbia,MD,39.2077660000,-76.8264300000
8611,21046,US,Columbia,MD,39.1750360000,-76.8372410000
8612,21047,US,Fallston,MD,39.5332390000,-76.4390240000
8613,21048,US,Finksburg,MD,39.4915730000,-76.9113910000
8614,21050,US,Forest Hill,MD,39.5838390000,-76.3960060000
8615,21051,US,Fork,MD,39.4779570000,-76.4528080000
8616,21052,US,Fort Howard,MD,39.2066180000,-76.4459320000
8617,21053,US,Freeland,MD,39.6835560000,-76.7174360000
8618,21054,US,Gambrills,MD,39.0256630000,-76.6652750000
8619,21056,US,Gibson Island,MD,39.0752700000,-76.4335320000
8620,21057,US,Glen Arm,MD,39.4483180000,-76.5013410000
8621,21060,US,Glen Burnie,MD,39.1728100000,-76.5764080000
8622,21061,US,Glen Burnie,MD,39.1626310000,-76.6398700000
8623,21062,US,Glen Burnie,MD,39.1626000000,-76.6250000000
8624,21065,US,Hunt Valley,MD,39.4808000000,-76.6448000000
8625,21071,US,Glyndon,MD,39.4732140000,-76.8151840000
8626,21074,US,Hampstead,MD,39.6141700000,-76.8526120000
8627,21075,US,Elkridge,MD,39.2003710000,-76.7473740000
8628,21076,US,Hanover,MD,39.1724740000,-76.7236830000
8629,21077,US,Harmans,MD,39.1575520000,-76.7016960000
8630,21078,US,Havre De Grace,MD,39.5563040000,-76.1507400000
8631,21082,US,Hydes,MD,39.4763820000,-76.4718890000
8632,21084,US,Jarrettsville,MD,39.6137140000,-76.4573030000
8633,21085,US,Joppa,MD,39.4474080000,-76.3526660000
8634,21087,US,Kingsville,MD,39.4473570000,-76.4182640000
8635,21088,US,Lineboro,MD,39.7139000000,-76.8368000000
8636,21090,US,Linthicum Heights,MD,39.2063360000,-76.6686460000
8637,21092,US,Long Green,MD,39.4728000000,-76.5233000000
8638,21093,US,Lutherville Timonium,MD,39.4376020000,-76.6386780000
8639,21094,US,Lutherville Timonium,MD,39.4211000000,-76.6266000000
8640,21102,US,Manchester,MD,39.6797020000,-76.8390600000
8641,21104,US,Marriottsville,MD,39.3429410000,-76.9047580000
8642,21105,US,Maryland Line,MD,39.7120530000,-76.6497420000
8643,21106,US,Mayo,MD,38.8877000000,-76.5125000000
8644,21108,US,Millersville,MD,39.0843700000,-76.6156860000
8645,21111,US,Monkton,MD,39.5756640000,-76.5937270000
8646,21113,US,Odenton,MD,39.0511350000,-76.7145610000
8647,21114,US,Crofton,MD,39.0103060000,-76.6831770000
8648,21117,US,Owings Mills,MD,39.4305360000,-76.7943190000
8649,21120,US,Parkton,MD,39.6475490000,-76.6796030000
8650,21122,US,Pasadena,MD,39.1253290000,-76.5121150000
8651,21123,US,Pasadena,MD,39.1259000000,-76.5123000000
8652,21128,US,Perry Hall,MD,39.4066160000,-76.4434820000
8653,21130,US,Perryman,MD,39.4662060000,-76.2014090000
8654,21131,US,Phoenix,MD,39.4997440000,-76.5723180000
8655,21132,US,Pylesville,MD,39.6932140000,-76.4180420000
8656,21133,US,Randallstown,MD,39.3752020000,-76.8138020000
8657,21136,US,Reisterstown,MD,39.4857040000,-76.7989940000
8658,21139,US,Riderwood,MD,39.4095000000,-76.6487000000
8659,21140,US,Riva,MD,38.9498480000,-76.5870550000
8660,21144,US,Severn,MD,39.1202340000,-76.6866500000
8661,21146,US,Severna Park,MD,39.0742180000,-76.5652400000
8662,21150,US,Simpsonville,MD,39.1857000000,-76.8776000000
8663,21152,US,Sparks Glencoe,MD,39.5482840000,-76.6850720000
8664,21153,US,Stevenson,MD,39.4186030000,-76.7091090000
8665,21154,US,Street,MD,39.6472810000,-76.3774970000
8666,21155,US,Upperco,MD,39.5691610000,-76.8054380000
8667,21156,US,Upper Falls,MD,39.4363580000,-76.3896860000
8668,21157,US,Westminster,MD,39.5552810000,-76.9905160000
8669,21158,US,Westminster,MD,39.6354900000,-77.0256420000
8670,21160,US,Whiteford,MD,39.6993550000,-76.3168810000
8671,21161,US,White Hall,MD,39.6603940000,-76.5754230000
8672,21162,US,White Marsh,MD,39.3902660000,-76.3990220000
8673,21163,US,Woodstock,MD,39.3393270000,-76.8579700000
8674,21201,US,Baltimore,MD,39.2953920000,-76.6239350000
8675,21202,US,Baltimore,MD,39.2958240000,-76.6077730000
8676,21203,US,Baltimore,MD,39.2905000000,-76.6126000000
8677,21204,US,Towson,MD,39.4019420000,-76.6328440000
8678,21205,US,Baltimore,MD,39.3036830000,-76.5649600000
8679,21206,US,Baltimore,MD,39.3346080000,-76.5365200000
8680,21207,US,Gwynn Oak,MD,39.3248360000,-76.7149520000
8681,21208,US,Pikesville,MD,39.3823750000,-76.7258760000
8682,21209,US,Baltimore,MD,39.3665220000,-76.6697260000
8683,21210,US,Baltimore,MD,39.3569520000,-76.6354090000
8684,21211,US,Baltimore,MD,39.3281760000,-76.6385120000
8685,21212,US,Baltimore,MD,39.3650980000,-76.6195740000
8686,21213,US,Baltimore,MD,39.3180320000,-76.5752530000
8687,21214,US,Baltimore,MD,39.3503750000,-76.5629240000
8688,21215,US,Baltimore,MD,39.3430760000,-76.6847880000
8689,21216,US,Baltimore,MD,39.3108160000,-76.6742220000
8690,21217,US,Baltimore,MD,39.3075400000,-76.6376210000
8691,21218,US,Baltimore,MD,39.3285960000,-76.6003220000
8692,21219,US,Sparrows Point,MD,39.2279950000,-76.4227620000
8693,21220,US,Middle River,MD,39.3402320000,-76.4019500000
8694,21221,US,Essex,MD,39.2946310000,-76.4357380000
8695,21222,US,Dundalk,MD,39.2576620000,-76.4950980000
8696,21223,US,Baltimore,MD,39.2812560000,-76.6514310000
8697,21224,US,Baltimore,MD,39.2784520000,-76.5342320000
8698,21225,US,Brooklyn,MD,39.2298420000,-76.6159680000
8699,21226,US,Curtis Bay,MD,39.2069700000,-76.5619760000
8700,21227,US,Halethorpe,MD,39.2411630000,-76.6718350000
8701,21228,US,Catonsville,MD,39.2675420000,-76.7445900000
8702,21229,US,Baltimore,MD,39.2809640000,-76.6936170000
8703,21230,US,Baltimore,MD,39.2642560000,-76.6216780000
8704,21231,US,Baltimore,MD,39.2878960000,-76.5923190000
8705,21233,US,Baltimore,MD,39.2905000000,-76.6125000000
8706,21234,US,Parkville,MD,39.3919360000,-76.5294680000
8707,21235,US,Baltimore,MD,39.3118000000,-76.7326000000
8708,21236,US,Nottingham,MD,39.3892780000,-76.4882650000
8709,21237,US,Rosedale,MD,39.3390960000,-76.4950390000
8710,21239,US,Baltimore,MD,39.3626660000,-76.5873130000
8711,21240,US,Baltimore,MD,39.1746300000,-76.6709210000
8712,21241,US,Baltimore,MD,39.2905000000,-76.6125000000
8713,21244,US,Windsor Mill,MD,39.3334820000,-76.7844460000
8714,21250,US,Baltimore,MD,39.2520780000,-76.7084120000
8715,21251,US,Baltimore,MD,39.3422700000,-76.5820960000
8716,21252,US,Towson,MD,39.3870260000,-76.6177840000
8717,21263,US,Baltimore,MD,39.2905000000,-76.6125000000
8718,21264,US,Baltimore,MD,39.2905000000,-76.6125000000
8719,21270,US,Baltimore,MD,39.2905000000,-76.6125000000
8720,21273,US,Baltimore,MD,39.2905000000,-76.6125000000
8721,21275,US,Baltimore,MD,39.2905000000,-76.6125000000
8722,21278,US,Baltimore,MD,39.2905000000,-76.6125000000
8723,21279,US,Baltimore,MD,39.2905000000,-76.6125000000
8724,21280,US,Baltimore,MD,39.2905000000,-76.6125000000
8725,21281,US,Baltimore,MD,39.2905000000,-76.6125000000
8726,21282,US,Pikesville,MD,39.2905000000,-76.6125000000
8727,21284,US,Towson,MD,39.4157000000,-76.6096000000
8728,21285,US,Towson,MD,39.4167000000,-76.6082000000
8729,21286,US,Towson,MD,39.4145960000,-76.5718260000
8730,21287,US,Baltimore,MD,39.2905000000,-76.6125000000
8731,21288,US,Baltimore,MD,39.2905000000,-76.6125000000
8732,21289,US,Baltimore,MD,39.2905000000,-76.6125000000
8733,21290,US,Baltimore,MD,39.2905000000,-76.6125000000
8734,21297,US,Baltimore,MD,39.2905000000,-76.6125000000
8735,21298,US,Baltimore,MD,39.2905000000,-76.6125000000
8736,21401,US,Annapolis,MD,38.9933900000,-76.5469850000
8737,21402,US,Annapolis,MD,38.9862700000,-76.4748060000
8738,21403,US,Annapolis,MD,38.9414780000,-76.4914810000
8739,21404,US,Annapolis,MD,38.9785000000,-76.4928000000
8740,21405,US,Annapolis,MD,39.0261100000,-76.5504140000
8741,21409,US,Annapolis,MD,39.0199220000,-76.4544980000
8742,21411,US,Annapolis,MD,38.9785000000,-76.4928000000
8743,21412,US,Annapolis,MD,38.9785000000,-76.4928000000
8744,21501,US,Cumberland,MD,39.6528000000,-78.7626000000
8745,21502,US,Cumberland,MD,39.6294070000,-78.7659400000
8746,21503,US,Cumberland,MD,39.6528000000,-78.7626000000
8747,21504,US,Cumberland,MD,39.6528000000,-78.7626000000
8748,21505,US,Cumberland,MD,39.5925000000,-78.8338000000
8749,21520,US,Accident,MD,39.6389960000,-79.3016970000
8750,21521,US,Barton,MD,39.5684080000,-79.0590580000
8751,21522,US,Bittinger,MD,39.5903100000,-79.2196330000
8752,21523,US,Bloomington,MD,39.5094450000,-79.1038270000
8753,21524,US,Corriganville,MD,39.7072720000,-78.8019460000
8754,21528,US,Eckhart Mines,MD,39.6516870000,-78.9050450000
8755,21529,US,Ellerslie,MD,39.7127900000,-78.7825500000
8756,21530,US,Flintstone,MD,39.6794050000,-78.5220380000
8757,21531,US,Friendsville,MD,39.6385650000,-79.3981480000
8758,21532,US,Frostburg,MD,39.6407520000,-78.9456420000
8759,21536,US,Grantsville,MD,39.6308440000,-79.1882160000
8760,21538,US,Kitzmiller,MD,39.4007580000,-79.2207520000
8761,21539,US,Lonaconing,MD,39.5988620000,-79.0109620000
8762,21540,US,Luke,MD,39.4762650000,-79.0610210000
8763,21541,US,Mc Henry,MD,39.5476410000,-79.3763000000
8764,21542,US,Midland,MD,39.5895030000,-78.9474760000
8765,21543,US,Midlothian,MD,39.6384550000,-78.9518140000
8766,21545,US,Mount Savage,MD,39.6918200000,-78.8619860000
8767,21550,US,Oakland,MD,39.3793500000,-79.3600370000
8768,21555,US,Oldtown,MD,39.5923460000,-78.5612320000
8769,21556,US,Pinto,MD,39.5699000000,-78.8396000000
8770,21557,US,Rawlings,MD,39.5100540000,-78.9216900000
8771,21560,US,Spring Gap,MD,39.5635570000,-78.7126310000
8772,21561,US,Swanton,MD,39.4934010000,-79.1979030000
8773,21562,US,Westernport,MD,39.4854040000,-79.0170130000
8774,21601,US,Easton,MD,38.7916630000,-76.0479920000
8775,21607,US,Barclay,MD,39.1330660000,-75.8472420000
8776,21609,US,Bethlehem,MD,38.7343000000,-75.9463000000
8777,21610,US,Betterton,MD,39.3571760000,-76.0659200000
8778,21612,US,Bozman,MD,38.7563570000,-76.2728120000
8779,21613,US,Cambridge,MD,38.4753620000,-76.1022340000
8780,21617,US,Centreville,MD,39.0573570000,-76.0249020000
8781,21619,US,Chester,MD,38.9496060000,-76.2774830000
8782,21620,US,Chestertown,MD,39.1931960000,-76.0753790000
8783,21622,US,Church Creek,MD,38.4053880000,-76.1938680000
8784,21623,US,Church Hill,MD,39.1305700000,-75.9649960000
8785,21624,US,Claiborne,MD,38.8355830000,-76.2646770000
8786,21625,US,Cordova,MD,38.8679360000,-75.9931300000
8787,21626,US,Crapo,MD,38.3146680000,-76.0928420000
8788,21627,US,Crocheron,MD,38.1845370000,-76.0587440000
8789,21628,US,Crumpton,MD,39.2348470000,-75.9230430000
8790,21629,US,Denton,MD,38.8459560000,-75.8369200000
8791,21631,US,East New Market,MD,38.5850370000,-75.9349650000
8792,21632,US,Federalsburg,MD,38.7205920000,-75.7925860000
8793,21634,US,Fishing Creek,MD,38.2902410000,-76.1796910000
8794,21635,US,Galena,MD,39.3276810000,-75.8406260000
8795,21636,US,Goldsboro,MD,39.0190780000,-75.8059390000
8796,21638,US,Grasonville,MD,38.9364690000,-76.2069200000
8797,21639,US,Greensboro,MD,38.9641600000,-75.8004860000
8798,21640,US,Henderson,MD,39.0693260000,-75.8159820000
8799,21641,US,Hillsboro,MD,38.9215520000,-75.9418320000
8800,21643,US,Hurlock,MD,38.6389460000,-75.8668950000
8801,21644,US,Ingleside,MD,39.1194950000,-75.8909460000
8802,21645,US,Kennedyville,MD,39.3203830000,-75.9708780000
8803,21647,US,Mcdaniel,MD,38.8099880000,-76.2834560000
8804,21648,US,Madison,MD,38.4900230000,-76.2352820000
8805,21649,US,Marydel,MD,39.1356120000,-75.7763440000
8806,21650,US,Massey,MD,39.3146150000,-75.8036100000
8807,21651,US,Millington,MD,39.2489480000,-75.8781010000
8808,21652,US,Neavitt,MD,38.7244000000,-76.2825000000
8809,21653,US,Newcomb,MD,38.7526520000,-76.1798760000
8810,21654,US,Oxford,MD,38.6875660000,-76.1283630000
8811,21655,US,Preston,MD,38.7516460000,-75.9256580000
8812,21656,US,Price,MD,39.1414000000,-75.9859000000
8813,21657,US,Queen Anne,MD,38.9603510000,-75.9857210000
8814,21658,US,Queenstown,MD,38.9398810000,-76.1380870000
8815,21659,US,Rhodesdale,MD,38.5739300000,-75.8100060000
8816,21660,US,Ridgely,MD,38.9640410000,-75.8887480000
8817,21661,US,Rock Hall,MD,39.1045800000,-76.2237930000
8818,21662,US,Royal Oak,MD,38.7048280000,-76.2087250000
8819,21663,US,Saint Michaels,MD,38.7998520000,-76.2332990000
8820,21664,US,Secretary,MD,38.6083760000,-75.9476140000
8821,21665,US,Sherwood,MD,38.7467990000,-76.3274490000
8822,21666,US,Stevensville,MD,38.9380330000,-76.3326640000
8823,21667,US,Still Pond,MD,39.3298470000,-76.0509960000
8824,21668,US,Sudlersville,MD,39.1784870000,-75.8649820000
8825,21669,US,Taylors Island,MD,38.4593060000,-76.2897100000
8826,21670,US,Templeville,MD,39.1364000000,-75.7666000000
8827,21671,US,Tilghman,MD,38.6975310000,-76.3352090000
8828,21672,US,Toddville,MD,38.2677990000,-76.0669400000
8829,21673,US,Trappe,MD,38.6523980000,-76.0530600000
8830,21675,US,Wingate,MD,38.2917090000,-76.0965510000
8831,21676,US,Wittman,MD,38.7831710000,-76.3017600000
8832,21677,US,Woolford,MD,38.5122710000,-76.1809540000
8833,21678,US,Worton,MD,39.3058410000,-76.0999880000
8834,21679,US,Wye Mills,MD,38.9158300000,-76.0881250000
8835,21690,US,Chestertown,MD,39.2091000000,-76.0668000000
8836,21701,US,Frederick,MD,39.4641600000,-77.3384260000
8837,21702,US,Frederick,MD,39.4959040000,-77.4540140000
8838,21703,US,Frederick,MD,39.3612670000,-77.4586160000
8839,21704,US,Frederick,MD,39.3442440000,-77.3764360000
8840,21705,US,Frederick,MD,39.4142000000,-77.4105000000
8841,21709,US,Frederick,MD,39.4142000000,-77.4105000000
8842,21710,US,Adamstown,MD,39.2920240000,-77.4431660000
8843,21711,US,Big Pool,MD,39.6609120000,-78.0278920000
8844,21713,US,Boonsboro,MD,39.5189240000,-77.6961120000
8845,21714,US,Braddock Heights,MD,39.4186000000,-77.5038000000
8846,21715,US,Brownsville,MD,39.3817000000,-77.6607000000
8847,21716,US,Brunswick,MD,39.3163870000,-77.6222960000
8848,21717,US,Buckeystown,MD,39.3377800000,-77.4370010000
8849,21718,US,Burkittsville,MD,39.3957500000,-77.6329970000
8850,21719,US,Cascade,MD,39.7026300000,-77.4966640000
8851,21720,US,Cavetown,MD,39.6444000000,-77.5864000000
8852,21721,US,Chewsville,MD,39.6472000000,-77.6308000000
8853,21722,US,Clear Spring,MD,39.6534400000,-77.9014850000
8854,21723,US,Cooksville,MD,39.3287080000,-77.0180900000
8855,21727,US,Emmitsburg,MD,39.6753500000,-77.3373750000
8856,21733,US,Fairplay,MD,39.5459700000,-77.7596000000
8857,21734,US,Funkstown,MD,39.6096900000,-77.7075640000
8858,21737,US,Glenelg,MD,39.2607070000,-77.0175580000
8859,21738,US,Glenwood,MD,39.2818340000,-77.0263290000
8860,21740,US,Hagerstown,MD,39.6289500000,-77.7155000000
8861,21741,US,Hagerstown,MD,39.6459000000,-77.7186000000
8862,21742,US,Hagerstown,MD,39.6541730000,-77.6545580000
8863,21746,US,Hagerstown,MD,39.6425000000,-77.7151000000
8864,21747,US,Hagerstown,MD,39.6425000000,-77.7151000000
8865,21749,US,Hagerstown,MD,39.6447000000,-77.7197000000
8866,21750,US,Hancock,MD,39.6708910000,-78.1972850000
8867,21754,US,Ijamsville,MD,39.3378170000,-77.3047280000
8868,21755,US,Jefferson,MD,39.3509880000,-77.5742040000
8869,21756,US,Keedysville,MD,39.4497210000,-77.7048720000
8870,21757,US,Keymar,MD,39.5973070000,-77.2478200000
8871,21758,US,Knoxville,MD,39.3615840000,-77.6619320000
8872,21759,US,Ladiesburg,MD,39.5765000000,-77.2653000000
8873,21762,US,Libertytown,MD,39.4846800000,-77.2467110000
8874,21765,US,Lisbon,MD,39.3129720000,-77.0017130000
8875,21766,US,Little Orleans,MD,39.6506500000,-78.4044280000
8876,21767,US,Maugansville,MD,39.6981300000,-77.7482750000
8877,21769,US,Middletown,MD,39.4420300000,-77.5676190000
8878,21770,US,Monrovia,MD,39.3481110000,-77.2570480000
8879,21771,US,Mount Airy,MD,39.3740700000,-77.1562580000
8880,21773,US,Myersville,MD,39.5421100000,-77.5594340000
8881,21774,US,New Market,MD,39.4116300000,-77.2727580000
8882,21775,US,New Midway,MD,39.5668000000,-77.2914000000
8883,21776,US,New Windsor,MD,39.5148440000,-77.1032100000
8884,21777,US,Point Of Rocks,MD,39.2828560000,-77.5282840000
8885,21778,US,Rocky Ridge,MD,39.6117680000,-77.3339560000
8886,21779,US,Rohrersville,MD,39.4229740000,-77.6503520000
8887,21780,US,Sabillasville,MD,39.6755320000,-77.4673200000
8888,21781,US,Saint James,MD,39.5674000000,-77.7474000000
8889,21782,US,Sharpsburg,MD,39.4452000000,-77.7696920000
8890,21783,US,Smithsburg,MD,39.6474310000,-77.5746000000
8891,21784,US,Sykesville,MD,39.3923590000,-76.9672800000
8892,21787,US,Taneytown,MD,39.6574650000,-77.1752080000
8893,21788,US,Thurmont,MD,39.5948660000,-77.4239360000
8894,21790,US,Tuscarora,MD,39.2586630000,-77.5077900000
8895,21791,US,Union Bridge,MD,39.5328480000,-77.1872580000
8896,21792,US,Unionville,MD,39.4748000000,-77.1859000000
8897,21793,US,Walkersville,MD,39.4940380000,-77.3436630000
8898,21794,US,West Friendship,MD,39.2926340000,-76.9732830000
8899,21795,US,Williamsport,MD,39.5864590000,-77.8251930000
8900,21797,US,Woodbine,MD,39.3526140000,-77.0777840000
8901,21798,US,Woodsboro,MD,39.5428280000,-77.2948100000
8902,21801,US,Salisbury,MD,38.3759810000,-75.6410600000
8903,21802,US,Salisbury,MD,38.3609000000,-75.5997000000
8904,21803,US,Salisbury,MD,38.3609000000,-75.5997000000
8905,21804,US,Salisbury,MD,38.3445800000,-75.5155360000
8906,21810,US,Allen,MD,38.2930640000,-75.6876720000
8907,21811,US,Berlin,MD,38.3141320000,-75.2354760000
8908,21813,US,Bishopville,MD,38.4199160000,-75.1730260000
8909,21814,US,Bivalve,MD,38.2955550000,-75.8893990000
8910,21817,US,Crisfield,MD,37.9753820000,-75.8496200000
8911,21821,US,Deal Island,MD,38.1379450000,-75.9741060000
8912,21822,US,Eden,MD,38.2789060000,-75.6509920000
8913,21824,US,Ewell,MD,37.9966140000,-76.0102620000
8914,21826,US,Fruitland,MD,38.3220160000,-75.6223820000
8915,21829,US,Girdletree,MD,38.0932830000,-75.3848420000
8916,21830,US,Hebron,MD,38.4066820000,-75.7498880000
8917,21835,US,Linkwood,MD,38.5379000000,-75.9338960000
8918,21836,US,Manokin,MD,38.1156000000,-75.7564000000
8919,21837,US,Mardela Springs,MD,38.4738510000,-75.7724640000
8920,21838,US,Marion Station,MD,38.0235640000,-75.7259280000
8921,21840,US,Nanticoke,MD,38.2585920000,-75.8914040000
8922,21841,US,Newark,MD,38.2583320000,-75.2873590000
8923,21842,US,Ocean City,MD,38.3872320000,-75.1023790000
8924,21843,US,Ocean City,MD,38.3898000000,-75.0842000000
8925,21849,US,Parsonsburg,MD,38.3769830000,-75.4711580000
8926,21850,US,Pittsville,MD,38.3695470000,-75.3926570000
8927,21851,US,Pocomoke City,MD,38.0899860000,-75.5455620000
8928,21852,US,Powellville,MD,38.3296000000,-75.3778000000
8929,21853,US,Princess Anne,MD,38.1951220000,-75.7057960000
8930,21856,US,Quantico,MD,38.3193920000,-75.7953300000
8931,21857,US,Rehobeth,MD,38.0388000000,-75.6636000000
8932,21861,US,Sharptown,MD,38.5393690000,-75.7190920000
8933,21862,US,Showell,MD,38.3943360000,-75.2089980000
8934,21863,US,Snow Hill,MD,38.1965660000,-75.4161960000
8935,21864,US,Stockton,MD,38.0456540000,-75.4079700000
8936,21865,US,Tyaskin,MD,38.2864060000,-75.8356880000
8937,21866,US,Tylerton,MD,37.9678020000,-76.0213370000
8938,21867,US,Upper Fairmount,MD,38.1102460000,-75.7920800000
8939,21869,US,Vienna,MD,38.3975940000,-75.8859540000
8940,21871,US,Westover,MD,38.0900520000,-75.7298300000
8941,21872,US,Whaleyville,MD,38.4097460000,-75.2895940000
8942,21874,US,Willards,MD,38.3885430000,-75.3582510000
8943,21875,US,Delmar,MD,38.4510460000,-75.5790510000
8944,21890,US,Westover,MD,38.0897000000,-75.8286000000
8945,21901,US,North East,MD,39.5755940000,-75.9491940000
8946,21902,US,Perry Point,MD,39.5534670000,-76.0633300000
8947,21903,US,Perryville,MD,39.5730790000,-76.0436440000
8948,21904,US,Port Deposit,MD,39.6289050000,-76.0699720000
8949,21911,US,Rising Sun,MD,39.6713360000,-76.0476480000
8950,21912,US,Warwick,MD,39.4310880000,-75.8228950000
8951,21913,US,Cecilton,MD,39.4043580000,-75.8677850000
8952,21914,US,Charlestown,MD,39.5743780000,-75.9796220000
8953,21915,US,Chesapeake City,MD,39.5026660000,-75.8504360000
8954,21916,US,Childs,MD,39.6461000000,-75.8718000000
8955,21917,US,Colora,MD,39.6674890000,-76.1012870000
8956,21918,US,Conowingo,MD,39.6790660000,-76.1703590000
8957,21919,US,Earleville,MD,39.4195600000,-75.9257400000
8958,21920,US,Elk Mills,MD,39.6609910000,-75.8284120000
8959,21921,US,Elkton,MD,39.6171170000,-75.8676540000
8960,21922,US,Elkton,MD,39.6067000000,-75.8339000000
8961,21930,US,Georgetown,MD,39.3720970000,-75.8913540000
