id,postal_cd,country_cd,city_name,state_abbrv,latitude,longitude
8074,20101,US,Dulles,VA,39.3355000000,-77.8426000000
8075,20102,US,Dulles,VA,38.9548670000,-77.4505150000
8076,20103,US,Dulles,VA,39.3214000000,-77.5365000000
8077,20104,US,Dulles,VA,39.3214000000,-77.5365000000
8078,20105,US,Aldie,VA,38.9608320000,-77.6043500000
8079,20106,US,Amissville,VA,38.6943560000,-77.9992640000
8080,20108,US,Manassas,VA,38.7657000000,-77.4852000000
8081,20109,US,Manassas,VA,38.7936880000,-77.5364500000
8082,20110,US,Manassas,VA,38.7462160000,-77.4891060000
8083,20111,US,Manassas,VA,38.7531980000,-77.4299540000
8084,20112,US,Manassas,VA,38.6648400000,-77.4339000000
8085,20113,US,Manassas,VA,38.7325000000,-77.4460000000
8086,20115,US,Marshall,VA,38.8378360000,-77.8986140000
8087,20116,US,Marshall,VA,38.7975000000,-77.9024000000
8088,20117,US,Middleburg,VA,38.9950290000,-77.7369670000
8089,20118,US,Middleburg,VA,38.9490090000,-77.7587040000
8090,20119,US,Catlett,VA,38.6261060000,-77.6251410000
8091,20120,US,Centreville,VA,38.8598100000,-77.4666160000
8092,20121,US,Centreville,VA,38.8158940000,-77.4608490000
8093,20122,US,Centreville,VA,38.8397000000,-77.4278000000
8094,20124,US,Clifton,VA,38.7759730000,-77.3880660000
8095,20128,US,Orlean,VA,38.7508000000,-77.9626000000
8096,20129,US,Paeonian Springs,VA,39.1634440000,-77.6012070000
8097,20130,US,Paris,VA,39.0305540000,-77.9367540000
8098,20131,US,Philomont,VA,39.0563000000,-77.7409000000
8099,20132,US,Purcellville,VA,39.1739580000,-77.7325300000
8100,20134,US,Purcellville,VA,39.1337000000,-77.7065000000
8101,20135,US,Bluemont,VA,39.0906310000,-77.8887660000
8102,20136,US,Bristow,VA,38.7366140000,-77.5466420000
8103,20137,US,Broad Run,VA,38.8087120000,-77.7255920000
8104,20138,US,Calverton,VA,38.6276410000,-77.6665720000
8105,20139,US,Casanova,VA,38.6447980000,-77.6971600000
8106,20140,US,Rectortown,VA,38.9265980000,-77.8672630000
8107,20141,US,Round Hill,VA,39.1079500000,-77.7846220000
8108,20142,US,Round Hill,VA,39.1382000000,-77.7728000000
8109,20143,US,Catharpin,VA,38.8487540000,-77.5661190000
8110,20144,US,Delaplane,VA,38.9291950000,-77.9386790000
8111,20146,US,Ashburn,VA,39.0438000000,-77.4879000000
8112,20147,US,Ashburn,VA,39.0395720000,-77.4816130000
8113,20148,US,Ashburn,VA,39.0014890000,-77.5155880000
8114,20149,US,Ashburn,VA,39.0438000000,-77.4879000000
8115,20151,US,Chantilly,VA,38.8861530000,-77.4509920000
8116,20152,US,Chantilly,VA,38.8922170000,-77.5098270000
8117,20153,US,Chantilly,VA,38.8188000000,-77.2920000000
8118,20155,US,Gainesville,VA,38.8132920000,-77.6339410000
8119,20156,US,Gainesville,VA,38.8283000000,-77.6248000000
8120,20158,US,Hamilton,VA,39.1395260000,-77.6548630000
8121,20159,US,Hamilton,VA,39.1344000000,-77.6697000000
8122,20160,US,Lincoln,VA,39.1153000000,-77.6916000000
8123,20163,US,Sterling,VA,39.0060000000,-77.4290000000
8124,20164,US,Sterling,VA,39.0141270000,-77.3999120000
8125,20165,US,Sterling,VA,39.0473570000,-77.3864790000
8126,20166,US,Sterling,VA,38.9828340000,-77.4715240000
8127,20167,US,Sterling,VA,39.0062000000,-77.4288000000
8128,20168,US,Haymarket,VA,38.8726000000,-77.6484000000
8129,20169,US,Haymarket,VA,38.8693580000,-77.6397860000
8130,20170,US,Herndon,VA,38.9837210000,-77.3827580000
8131,20171,US,Herndon,VA,38.9266040000,-77.3911880000
8132,20172,US,Herndon,VA,38.9209000000,-77.3953000000
8133,20175,US,Leesburg,VA,39.0522710000,-77.6035770000
8134,20176,US,Leesburg,VA,39.1600380000,-77.5218520000
8135,20177,US,Leesburg,VA,39.1169000000,-77.5564000000
8136,20178,US,Leesburg,VA,39.1169000000,-77.5564000000
8137,20180,US,Lovettsville,VA,39.2687420000,-77.6292550000
8138,20181,US,Nokesville,VA,38.6906270000,-77.5732740000
8139,20182,US,Nokesville,VA,38.6872000000,-77.5498000000
8140,20184,US,Upperville,VA,39.0096480000,-77.8717970000
8141,20185,US,Upperville,VA,38.8788000000,-77.8397000000
8142,20186,US,Warrenton,VA,38.7059460000,-77.8495080000
8143,20187,US,Warrenton,VA,38.7226860000,-77.7413780000
8144,20188,US,Warrenton,VA,38.7217000000,-77.7849000000
8145,20189,US,Dulles,VA,,
8146,20190,US,Reston,VA,38.9609740000,-77.3424670000
8147,20191,US,Reston,VA,38.9311200000,-77.3513940000
8148,20192,US,Herndon,VA,38.9468150000,-77.3649540000
8149,20194,US,Reston,VA,38.9826670000,-77.3414540000
8150,20195,US,Reston,VA,38.9768000000,-77.3485000000
8151,20196,US,Reston,VA,38.9628000000,-77.3372000000
8152,20197,US,Waterford,VA,39.1924090000,-77.6253000000
8153,20198,US,The Plains,VA,38.8781800000,-77.7499000000
8356,20598,US,DHS,VA,,
8962,22003,US,Annandale,VA,38.8377590000,-77.2103280000
8963,22009,US,Burke,VA,38.7935000000,-77.2718000000
8964,22015,US,Burke,VA,38.7853060000,-77.2860750000
8965,22025,US,Dumfries,VA,38.5971620000,-77.3444200000
8966,22026,US,Dumfries,VA,38.5678080000,-77.2966810000
8967,22027,US,Dunn Loring,VA,38.8950340000,-77.2204540000
8968,22030,US,Fairfax,VA,38.8372560000,-77.3420080000
8969,22031,US,Fairfax,VA,38.8589070000,-77.2613580000
8970,22032,US,Fairfax,VA,38.8209520000,-77.2889440000
8971,22033,US,Fairfax,VA,38.8793660000,-77.3767680000
8972,22034,US,Fairfax,VA,38.4515000000,-77.2801000000
8973,22035,US,Fairfax,VA,38.8444000000,-77.3086000000
8974,22036,US,Fairfax,VA,38.8021000000,-77.4302000000
8975,22037,US,Fairfax,VA,38.8596000000,-77.2269000000
8976,22038,US,Fairfax,VA,38.8458000000,-77.3075000000
8977,22039,US,Fairfax Station,VA,38.7549310000,-77.3101580000
8978,22040,US,Falls Church,VA,38.8669000000,-77.1528000000
8979,22041,US,Falls Church,VA,38.8512110000,-77.1447700000
8980,22042,US,Falls Church,VA,38.8629560000,-77.1938720000
8981,22043,US,Falls Church,VA,38.8992880000,-77.1913560000
8982,22044,US,Falls Church,VA,38.8614780000,-77.1552480000
8983,22046,US,Falls Church,VA,38.8882800000,-77.1809600000
8984,22060,US,Fort Belvoir,VA,38.7106480000,-77.1584880000
8985,22066,US,Great Falls,VA,39.0044480000,-77.3080980000
8986,22067,US,Greenway,VA,38.9712670000,-77.2305480000
8987,22079,US,Lorton,VA,38.6765000000,-77.2068840000
8988,22081,US,Merrifield,VA,38.8742000000,-77.2303000000
8989,22082,US,Merrifield,VA,38.8745000000,-77.2272000000
8990,22095,US,Herndon,VA,38.9696000000,-77.3866000000
8991,22096,US,Reston,VA,38.9627000000,-77.3373000000
8992,22101,US,Mc Lean,VA,38.9358530000,-77.1621410000
8993,22102,US,Mc Lean,VA,38.9599420000,-77.2249020000
8994,22103,US,West Mclean,VA,38.9335000000,-77.1791000000
8995,22106,US,Mc Lean,VA,38.9375000000,-77.1787000000
8996,22107,US,Mc Lean,VA,38.9327000000,-77.1828000000
8997,22108,US,Mc Lean,VA,38.9327000000,-77.1828000000
8998,22109,US,Mc Lean,VA,38.9327000000,-77.1828000000
8999,22116,US,Merrifield,VA,38.8745000000,-77.2272000000
9000,22118,US,Merrifield,VA,38.8745000000,-77.2272000000
9001,22119,US,Merrifield,VA,38.8745000000,-77.2272000000
9002,22121,US,Mount Vernon,VA,38.7078000000,-77.0865000000
9003,22122,US,Newington,VA,38.7386000000,-77.1853000000
9004,22124,US,Oakton,VA,38.8931160000,-77.3288860000
9005,22125,US,Occoquan,VA,38.6828620000,-77.2589050000
9006,22134,US,Quantico,VA,38.5637660000,-77.4226820000
9007,22135,US,Quantico,VA,38.5225000000,-77.2938000000
9008,22150,US,Springfield,VA,38.7611300000,-77.1860460000
9009,22151,US,Springfield,VA,38.8016440000,-77.2108940000
9010,22152,US,Springfield,VA,38.7760930000,-77.2334500000
9011,22153,US,Springfield,VA,38.7454680000,-77.2325290000
9012,22156,US,Springfield,VA,38.7893000000,-77.1878000000
9013,22158,US,Springfield,VA,38.7893000000,-77.1878000000
9014,22159,US,Springfield,VA,38.7893000000,-77.1878000000
9015,22160,US,Springfield,VA,38.7893000000,-77.1878000000
9016,22161,US,Springfield,VA,38.7893000000,-77.1878000000
9017,22172,US,Triangle,VA,38.5637340000,-77.3561510000
9018,22180,US,Vienna,VA,38.8974260000,-77.2528680000
9019,22181,US,Vienna,VA,38.9046080000,-77.2955590000
9020,22182,US,Vienna,VA,38.9361480000,-77.2675980000
9021,22183,US,Vienna,VA,38.9014000000,-77.2656000000
9022,22185,US,Vienna,VA,38.9014000000,-77.2656000000
9023,22191,US,Woodbridge,VA,38.6233460000,-77.2636400000
9024,22192,US,Woodbridge,VA,38.6764790000,-77.3170500000
9025,22193,US,Woodbridge,VA,38.6425310000,-77.3484540000
9026,22194,US,Woodbridge,VA,38.6581000000,-77.2501000000
9027,22195,US,Woodbridge,VA,38.6581000000,-77.2501000000
9028,22199,US,Lorton,VA,38.7045000000,-77.2282000000
9029,22201,US,Arlington,VA,38.8865940000,-77.0947260000
9030,22202,US,Arlington,VA,38.8598290000,-77.0532780000
9031,22203,US,Arlington,VA,38.8749930000,-77.1226090000
9032,22204,US,Arlington,VA,38.8615040000,-77.1001120000
9033,22205,US,Arlington,VA,38.8822480000,-77.1410560000
9034,22206,US,Arlington,VA,38.8408580000,-77.0890200000
9035,22207,US,Arlington,VA,38.9098120000,-77.1201600000
9036,22209,US,Arlington,VA,38.8929140000,-77.0725710000
9037,22210,US,Arlington,VA,38.8804000000,-77.1119000000
9038,22211,US,Fort Myer,VA,38.8769970000,-77.0708520000
9039,22212,US,Arlington,VA,38.8675000000,-77.1035000000
9040,22213,US,Arlington,VA,38.8957820000,-77.1625680000
9041,22214,US,Arlington,VA,38.8787000000,-77.1155000000
9042,22215,US,Arlington,VA,38.8795000000,-77.1134000000
9043,22216,US,Arlington,VA,38.8774000000,-77.1155000000
9044,22217,US,Arlington,VA,38.8690000000,-77.1039000000
9045,22219,US,Arlington,VA,38.8753000000,-77.1087000000
9046,22222,US,Arlington,VA,38.8803000000,-77.1154000000
9047,22225,US,Arlington,VA,38.8696000000,-77.0576000000
9048,22226,US,Arlington,VA,38.8797000000,-77.1117000000
9049,22227,US,Arlington,VA,38.8801000000,-77.1118000000
9050,22230,US,Arlington,VA,38.8803000000,-77.1154000000
9051,22240,US,Arlington,VA,38.8803000000,-77.1154000000
9052,22241,US,Arlington,VA,38.8803000000,-77.1154000000
9053,22242,US,Arlington,VA,38.8803000000,-77.1154000000
9054,22243,US,Arlington,VA,38.8803000000,-77.1154000000
9055,22244,US,Arlington,VA,38.8803000000,-77.1154000000
9056,22245,US,Arlington,VA,38.8803000000,-77.1154000000
9057,22246,US,Arlington,VA,38.8862000000,-77.0952000000
9058,22301,US,Alexandria,VA,38.8183620000,-77.0604320000
9059,22302,US,Alexandria,VA,38.8307150000,-77.0936180000
9060,22303,US,Alexandria,VA,38.7900680000,-77.0812050000
9061,22304,US,Alexandria,VA,38.8121670000,-77.1264060000
9062,22305,US,Alexandria,VA,38.8363160000,-77.0650060000
9063,22306,US,Alexandria,VA,38.7590520000,-77.0871240000
9064,22307,US,Alexandria,VA,38.7720650000,-77.0587210000
9065,22308,US,Alexandria,VA,38.7313520000,-77.0619230000
9066,22309,US,Alexandria,VA,38.7183980000,-77.1071640000
9067,22310,US,Alexandria,VA,38.7820060000,-77.1220480000
9068,22311,US,Alexandria,VA,38.8338930000,-77.1220820000
9069,22312,US,Alexandria,VA,38.8175220000,-77.1526740000
9070,22313,US,Alexandria,VA,38.8049000000,-77.0475000000
9071,22314,US,Alexandria,VA,38.8140300000,-77.0639620000
9072,22315,US,Alexandria,VA,38.7575000000,-77.1366090000
9073,22320,US,Alexandria,VA,38.8049000000,-77.0475000000
9074,22331,US,Alexandria,VA,38.8016000000,-77.0704000000
9075,22332,US,Alexandria,VA,38.8052000000,-77.0473000000
9076,22333,US,Alexandria,VA,38.8049000000,-77.0475000000
9077,22334,US,Alexandria,VA,38.8049000000,-77.0475000000
9078,22350,US,Alexandria,VA,38.7995840000,-77.0491790000
9079,22401,US,Fredericksburg,VA,38.2982820000,-77.4913860000
9080,22402,US,Fredericksburg,VA,38.3026000000,-77.4604000000
9081,22403,US,Fredericksburg,VA,38.3008000000,-77.4621000000
9082,22404,US,Fredericksburg,VA,38.2946000000,-77.4554000000
9083,22405,US,Fredericksburg,VA,38.3198400000,-77.4115840000
9084,22406,US,Fredericksburg,VA,38.4028570000,-77.5471900000
9085,22407,US,Fredericksburg,VA,38.2634280000,-77.5981610000
9086,22408,US,Fredericksburg,VA,38.2088530000,-77.4029340000
9087,22412,US,Fredericksburg,VA,38.2834000000,-77.4984000000
9088,22427,US,Bowling Green,VA,38.0247610000,-77.2493050000
9089,22428,US,Bowling Green,VA,38.0496000000,-77.3467000000
9090,22430,US,Brooke,VA,38.3868000000,-77.3799000000
9091,22432,US,Burgess,VA,37.8588980000,-76.3408520000
9092,22433,US,Burr Hill,VA,38.3614000000,-77.8666380000
9093,22435,US,Callao,VA,37.9334860000,-76.5696040000
9094,22436,US,Caret,VA,38.1033770000,-77.1011820000
9095,22437,US,Center Cross,VA,37.7960480000,-76.7319630000
9096,22438,US,Champlain,VA,38.0425820000,-76.9957860000
9097,22442,US,Coles Point,VA,38.1439000000,-76.6358000000
9098,22443,US,Colonial Beach,VA,38.1775570000,-76.9846870000
9099,22446,US,Corbin,VA,38.1996000000,-77.3893000000
9100,22448,US,Dahlgren,VA,38.3390100000,-77.0327500000
9101,22451,US,Dogue,VA,38.2316000000,-77.2164000000
9102,22454,US,Dunnsville,VA,37.8483190000,-76.8392400000
9103,22456,US,Edwardsville,VA,37.9066000000,-76.3658000000
9104,22460,US,Farnham,VA,37.8638900000,-76.6192160000
9105,22463,US,Garrisonville,VA,38.4826000000,-77.4268000000
9106,22469,US,Hague,VA,38.0626220000,-76.6597610000
9107,22471,US,Hartwood,VA,38.4022000000,-77.5658000000
9108,22472,US,Haynesville,VA,37.9501000000,-76.6629000000
9109,22473,US,Heathsville,VA,37.8838940000,-76.3955460000
9110,22476,US,Hustle,VA,38.0387810000,-77.0687560000
9111,22480,US,Irvington,VA,37.6646790000,-76.4155550000
9112,22481,US,Jersey,VA,38.2114000000,-77.1397000000
9113,22482,US,Kilmarnock,VA,37.7391320000,-76.3515090000
9114,22485,US,King George,VA,38.2710780000,-77.1727620000
9115,22488,US,Kinsale,VA,38.0417220000,-76.5874920000
9116,22501,US,Ladysmith,VA,38.0178000000,-77.5159000000
9117,22503,US,Lancaster,VA,37.7337830000,-76.5298510000
9118,22504,US,Laneview,VA,37.7574960000,-76.7267840000
9119,22507,US,Lively,VA,37.7576280000,-76.4958570000
9120,22508,US,Locust Grove,VA,38.3112550000,-77.7839570000
9121,22509,US,Loretto,VA,38.0817030000,-77.0393410000
9122,22511,US,Lottsburg,VA,37.9907360000,-76.4954790000
9123,22513,US,Merry Point,VA,37.7337000000,-76.4826000000
9124,22514,US,Milford,VA,37.9603410000,-77.2430820000
9125,22517,US,Mollusk,VA,37.7302000000,-76.5385000000
9126,22520,US,Montross,VA,38.1094820000,-76.8077280000
9127,22523,US,Morattico,VA,37.7894000000,-76.6297000000
9128,22524,US,Mount Holly,VA,38.0914000000,-76.7183000000
9129,22526,US,Ninde,VA,38.2712000000,-77.0564000000
9130,22528,US,Nuttsville,VA,37.7933000000,-76.5512000000
9131,22529,US,Oldhams,VA,38.0136500000,-76.6848660000
9132,22530,US,Ophelia,VA,37.9102000000,-76.2838000000
9133,22534,US,Partlow,VA,38.0678240000,-77.6771700000
9134,22535,US,Port Royal,VA,38.1199380000,-77.2498600000
9135,22538,US,Rappahannock Academy,VA,38.2037200000,-77.2449740000
9136,22539,US,Reedville,VA,37.8616520000,-76.2870240000
9137,22542,US,Rhoadesville,VA,38.3020440000,-77.9009280000
9138,22544,US,Rollins Fork,VA,38.1844000000,-77.0627000000
9139,22545,US,Ruby,VA,38.5044000000,-77.5158000000
9140,22546,US,Ruther Glen,VA,37.9497260000,-77.4376240000
9141,22547,US,Sealston,VA,38.2616000000,-77.3322000000
9142,22548,US,Sharps,VA,37.8251570000,-76.7046670000
9143,22551,US,Spotsylvania,VA,38.1788740000,-77.6978370000
9144,22552,US,Sparta,VA,37.9914000000,-77.2306000000
9145,22553,US,Spotsylvania,VA,38.2752720000,-77.6260900000
9146,22554,US,Stafford,VA,38.4327760000,-77.3951560000
9147,22555,US,Stafford,VA,38.4216000000,-77.4089000000
9148,22556,US,Stafford,VA,38.5025960000,-77.4953030000
9149,22558,US,Stratford,VA,38.1208000000,-76.8113000000
9150,22560,US,Tappahannock,VA,37.9135860000,-76.9777380000
9151,22565,US,Thornburg,VA,38.1336000000,-77.5218000000
9152,22567,US,Unionville,VA,38.2386590000,-77.9263380000
9153,22570,US,Village,VA,37.9488000000,-76.6045000000
9154,22572,US,Warsaw,VA,37.9636490000,-76.7717780000
9155,22576,US,Weems,VA,37.6906070000,-76.4268900000
9156,22577,US,Sandy Point,VA,38.0642000000,-76.5592000000
9157,22578,US,White Stone,VA,37.6412050000,-76.3777940000
9158,22579,US,Wicomico Church,VA,37.8003120000,-76.3463900000
9159,22580,US,Woodford,VA,38.1264920000,-77.4412820000
9160,22581,US,Zacata,VA,38.1201000000,-76.7825000000
9161,22601,US,Winchester,VA,39.1681830000,-78.1692740000
9162,22602,US,Winchester,VA,39.1510730000,-78.2772180000
9163,22603,US,Winchester,VA,39.2903990000,-78.1933230000
9164,22604,US,Winchester,VA,39.3103000000,-78.3200000000
9165,22610,US,Bentonville,VA,38.8184640000,-78.2785400000
9166,22611,US,Berryville,VA,39.1753190000,-77.9752900000
9167,22620,US,Boyce,VA,39.0654150000,-78.0324560000
9168,22622,US,Brucetown,VA,39.2545000000,-78.0667000000
9169,22623,US,Chester Gap,VA,38.8535000000,-78.1355000000
9170,22624,US,Clear Brook,VA,39.2716460000,-78.0998940000
9171,22625,US,Cross Junction,VA,39.3801960000,-78.3061150000
9172,22626,US,Fishers Hill,VA,38.9788000000,-78.4022060000
9173,22627,US,Flint Hill,VA,38.7651210000,-78.0836260000
9174,22630,US,Front Royal,VA,38.9224480000,-78.1725540000
9175,22637,US,Gore,VA,39.2537190000,-78.3481040000
9176,22639,US,Hume,VA,38.8112610000,-78.0209280000
9177,22640,US,Huntly,VA,38.8116800000,-78.1251850000
9178,22641,US,Strasburg,VA,39.0735080000,-78.3867520000
9179,22642,US,Linden,VA,38.9048560000,-78.0650060000
9180,22643,US,Markham,VA,38.8960940000,-78.0044550000
9181,22644,US,Maurertown,VA,38.9637190000,-78.5364400000
9182,22645,US,Middletown,VA,39.0235520000,-78.2697510000
9183,22646,US,Millwood,VA,39.0650410000,-78.0379010000
9184,22649,US,Middletown,VA,39.0020520000,-78.2570260000
9185,22650,US,Rileyville,VA,38.7592520000,-78.3615100000
9186,22652,US,Fort Valley,VA,38.8458320000,-78.4345960000
9187,22654,US,Star Tannery,VA,39.0637370000,-78.4504770000
9188,22655,US,Stephens City,VA,39.0482360000,-78.2386580000
9189,22656,US,Stephenson,VA,39.2135550000,-78.0828400000
9190,22657,US,Strasburg,VA,39.0092100000,-78.3507700000
9191,22660,US,Toms Brook,VA,38.9545010000,-78.4311390000
9192,22663,US,White Post,VA,39.0562070000,-78.1145270000
9193,22664,US,Woodstock,VA,38.8916470000,-78.5340700000
9194,22701,US,Culpeper,VA,38.4399500000,-78.0100480000
9195,22709,US,Aroda,VA,38.3065960000,-78.2522230000
9196,22711,US,Banco,VA,38.4701240000,-78.2834480000
9197,22712,US,Bealeton,VA,38.5492290000,-77.7558200000
9198,22713,US,Boston,VA,38.5392480000,-78.1414920000
9199,22714,US,Brandy Station,VA,38.5199330000,-77.8839300000
9200,22715,US,Brightwood,VA,38.4120380000,-78.1709820000
9201,22716,US,Castleton,VA,38.6211370000,-78.0992330000
9202,22718,US,Elkwood,VA,38.4693320000,-77.8146840000
9203,22719,US,Etlan,VA,38.5095320000,-78.2643200000
9204,22720,US,Goldvein,VA,38.4759700000,-77.6419520000
9205,22722,US,Haywood,VA,38.4607080000,-78.2335460000
9206,22723,US,Hood,VA,38.3423600000,-78.3963860000
9207,22724,US,Jeffersonton,VA,38.6297300000,-77.9057240000
9208,22725,US,Leon,VA,38.4426940000,-78.1384040000
9209,22726,US,Lignum,VA,38.3993440000,-77.8145000000
9210,22727,US,Madison,VA,38.3942580000,-78.3230790000
9211,22728,US,Midland,VA,38.5768780000,-77.6799540000
9212,22729,US,Mitchells,VA,38.3693400000,-78.0163900000
9213,22730,US,Oakpark,VA,38.3582450000,-78.1700130000
9214,22731,US,Pratts,VA,38.3554840000,-78.2750800000
9215,22732,US,Radiant,VA,38.3144790000,-78.1987880000
9216,22733,US,Rapidan,VA,38.3333500000,-78.0418790000
9217,22734,US,Remington,VA,38.5281580000,-77.8231340000
9218,22735,US,Reva,VA,38.4830140000,-78.1654280000
9219,22736,US,Richardsville,VA,38.3939570000,-77.6957360000
9220,22737,US,Rixeyville,VA,38.5898290000,-78.0081850000
9221,22738,US,Rochelle,VA,38.2754100000,-78.2529380000
9222,22739,US,Somerville,VA,38.5217000000,-77.6098000000
9223,22740,US,Sperryville,VA,38.6353330000,-78.2547390000
9224,22741,US,Stevensburg,VA,38.4413480000,-77.8666820000
9225,22742,US,Sumerduck,VA,38.4607620000,-77.7156500000
9226,22743,US,Syria,VA,38.5420400000,-78.3779530000
9227,22746,US,Viewtown,VA,38.6376040000,-78.0299380000
9228,22747,US,Washington,VA,38.7307800000,-78.1719710000
9229,22748,US,Wolftown,VA,38.3559000000,-78.3478000000
9230,22749,US,Woodville,VA,38.6192490000,-78.1835960000
9231,22801,US,Harrisonburg,VA,38.4142100000,-78.8926280000
9232,22802,US,Harrisonburg,VA,38.4862840000,-78.8506360000
9233,22803,US,Harrisonburg,VA,38.5056000000,-78.9398000000
9234,22807,US,Harrisonburg,VA,38.4332400000,-78.8663330000
9235,22810,US,Basye,VA,38.8224860000,-78.7870600000
9236,22811,US,Bergton,VA,38.8009800000,-78.9818020000
9237,22812,US,Bridgewater,VA,38.3713460000,-79.0380140000
9238,22815,US,Broadway,VA,38.6510720000,-78.7967010000
9239,22820,US,Criders,VA,38.7202860000,-79.0170370000
9240,22821,US,Dayton,VA,38.4766850000,-79.0723830000
9241,22824,US,Edinburg,VA,38.8400160000,-78.6420360000
9242,22827,US,Elkton,VA,38.3589500000,-78.6150340000
9243,22830,US,Fulks Run,VA,38.6565960000,-78.9974340000
9244,22831,US,Hinton,VA,38.5575460000,-79.0748990000
9245,22832,US,Keezletown,VA,38.4421000000,-78.7667670000
9246,22833,US,Lacey Spring,VA,38.5413000000,-78.7667000000
9247,22834,US,Linville,VA,38.5621870000,-78.8850910000
9248,22835,US,Luray,VA,38.6934690000,-78.4802240000
9249,22840,US,Mc Gaheysville,VA,38.3797780000,-78.7518120000
9250,22841,US,Mount Crawford,VA,38.3354560000,-78.8968830000
9251,22842,US,Mount Jackson,VA,38.7892020000,-78.6980540000
9252,22843,US,Mount Solon,VA,38.3700490000,-79.1731940000
9253,22844,US,New Market,VA,38.6323570000,-78.6636750000
9254,22845,US,Orkney Springs,VA,38.7826640000,-78.8161880000
9255,22846,US,Penn Laird,VA,38.3654630000,-78.7908320000
9256,22847,US,Quicksburg,VA,38.7253520000,-78.7160790000
9257,22848,US,Pleasant Valley,VA,38.3844000000,-78.8977000000
9258,22849,US,Shenandoah,VA,38.5268990000,-78.6031170000
9259,22850,US,Singers Glen,VA,38.5718870000,-78.9167940000
9260,22851,US,Stanley,VA,38.5599520000,-78.5128960000
9261,22853,US,Timberville,VA,38.6691070000,-78.7593220000
9262,22901,US,Charlottesville,VA,38.0963520000,-78.5568940000
9263,22902,US,Charlottesville,VA,37.9537600000,-78.4695020000
9264,22903,US,Charlottesville,VA,38.0027210000,-78.6088750000
9265,22904,US,Charlottesville,VA,38.0370460000,-78.5179470000
9266,22905,US,Charlottesville,VA,38.0295000000,-78.4769000000
9267,22906,US,Charlottesville,VA,38.0295000000,-78.4769000000
9268,22907,US,Charlottesville,VA,38.0295000000,-78.4769000000
9269,22908,US,Charlottesville,VA,38.0295000000,-78.4769000000
9270,22909,US,Charlottesville,VA,38.0446000000,-78.4726000000
9271,22910,US,Charlottesville,VA,38.0295000000,-78.4769000000
9272,22911,US,Charlottesville,VA,38.0966630000,-78.3994410000
9273,22920,US,Afton,VA,37.9750380000,-78.8243560000
9274,22922,US,Arrington,VA,37.6818700000,-78.9275480000
9275,22923,US,Barboursville,VA,38.1865760000,-78.3269840000
9276,22924,US,Batesville,VA,38.0004800000,-78.7226250000
9277,22931,US,Covesville,VA,37.9077320000,-78.7110550000
9278,22932,US,Crozet,VA,38.1303010000,-78.6859980000
9279,22935,US,Dyke,VA,38.2551050000,-78.5680580000
9280,22936,US,Earlysville,VA,38.1565720000,-78.5093000000
9281,22937,US,Esmont,VA,37.8192340000,-78.6152990000
9282,22938,US,Faber,VA,37.8499660000,-78.8058660000
9283,22939,US,Fishersville,VA,38.0938260000,-78.9850450000
9284,22940,US,Free Union,VA,38.2087120000,-78.6249240000
9285,22942,US,Gordonsville,VA,38.0921880000,-78.1475760000
9286,22943,US,Greenwood,VA,38.0429690000,-78.7817690000
9287,22945,US,Ivy,VA,38.0564000000,-78.5969000000
9288,22946,US,Keene,VA,37.8461790000,-78.5710700000
9289,22947,US,Keswick,VA,38.0534110000,-78.3185960000
9290,22948,US,Locust Dale,VA,38.3599330000,-78.1183640000
9291,22949,US,Lovingston,VA,37.7913060000,-78.8694500000
9292,22952,US,Lyndhurst,VA,37.9622480000,-78.9599910000
9293,22957,US,Montpelier Station,VA,38.2269140000,-78.1830360000
9294,22958,US,Nellysford,VA,37.8963000000,-78.8916080000
9295,22959,US,North Garden,VA,37.9355360000,-78.6379510000
9296,22960,US,Orange,VA,38.2169810000,-78.0365510000
9297,22963,US,Palmyra,VA,37.8356630000,-78.2839570000
9298,22964,US,Piney River,VA,37.7170420000,-78.9859930000
9299,22965,US,Quinque,VA,38.2500000000,-78.3982000000
9300,22967,US,Roseland,VA,37.8214730000,-79.0384490000
9301,22968,US,Ruckersville,VA,38.2550220000,-78.3767750000
9302,22969,US,Schuyler,VA,37.7839940000,-78.6980080000
9303,22971,US,Shipman,VA,37.7517120000,-78.8032360000
9304,22972,US,Somerset,VA,38.2177760000,-78.2251620000
9305,22973,US,Stanardsville,VA,38.3425460000,-78.4848640000
9306,22974,US,Troy,VA,37.9622990000,-78.2633350000
9307,22976,US,Tyro,VA,37.8321390000,-79.0545670000
9308,22980,US,Waynesboro,VA,38.1074150000,-78.9037370000
9309,22987,US,White Hall,VA,38.1179000000,-78.6617000000
9310,22989,US,Woodberry Forest,VA,38.2938340000,-78.1180240000
9311,23001,US,Achilles,VA,37.2922710000,-76.4098700000
9312,23002,US,Amelia Court House,VA,37.3479000000,-77.9636410000
9313,23003,US,Ark,VA,37.4383000000,-76.5764000000
9314,23004,US,Arvonia,VA,37.6712260000,-78.4172660000
9315,23005,US,Ashland,VA,37.7554780000,-77.4958980000
9316,23009,US,Aylett,VA,37.8095090000,-77.1865440000
9317,23011,US,Barhamsville,VA,37.4782200000,-76.8063940000
9318,23014,US,Beaumont,VA,37.6738000000,-77.8971000000
9319,23015,US,Beaverdam,VA,37.9366140000,-77.6184170000
9320,23018,US,Bena,VA,37.2706000000,-76.4556000000
9321,23021,US,Bohannon,VA,37.3884860000,-76.3693270000
9322,23022,US,Bremo Bluff,VA,37.7411210000,-78.2626480000
9323,23023,US,Bruington,VA,37.7845550000,-76.9234080000
9324,23024,US,Bumpass,VA,37.9410240000,-77.7927320000
9325,23025,US,Cardinal,VA,37.4162980000,-76.3755600000
9326,23027,US,Cartersville,VA,37.6333400000,-78.1481860000
9327,23030,US,Charles City,VA,37.3567870000,-77.0715750000
9328,23031,US,Christchurch,VA,37.6044000000,-76.5349000000
9329,23032,US,Church View,VA,37.6690680000,-76.6721390000
9330,23035,US,Cobbs Creek,VA,37.5066040000,-76.3727940000
9331,23038,US,Columbia,VA,37.7547210000,-78.1364750000
9332,23039,US,Crozier,VA,37.6561990000,-77.8077480000
9333,23040,US,Cumberland,VA,37.5256510000,-78.2581190000
9334,23043,US,Deltaville,VA,37.5674410000,-76.3493670000
9335,23045,US,Diggs,VA,37.4269190000,-76.2759660000
9336,23047,US,Doswell,VA,37.8590860000,-77.4827160000
9337,23050,US,Dutton,VA,37.4901240000,-76.4339450000
9338,23055,US,Fork Union,VA,37.7818170000,-78.2145650000
9339,23056,US,Foster,VA,37.4388060000,-76.3850900000
9340,23058,US,Glen Allen,VA,37.6656000000,-77.5069000000
9341,23059,US,Glen Allen,VA,37.7085900000,-77.5436860000
9342,23060,US,Glen Allen,VA,37.6617380000,-77.5312680000
9343,23061,US,Gloucester,VA,37.4408600000,-76.5570960000
9344,23062,US,Gloucester Point,VA,37.2563720000,-76.5043070000
9345,23063,US,Goochland,VA,37.7264000000,-77.9853350000
9346,23064,US,Grimstead,VA,37.5026220000,-76.3015220000
9347,23065,US,Gum Spring,VA,37.8020320000,-77.9306520000
9348,23066,US,Gwynn,VA,37.4925630000,-76.2891710000
9349,23067,US,Hadensville,VA,37.8253000000,-78.0002000000
9350,23068,US,Hallieford,VA,37.4933220000,-76.3474740000
9351,23069,US,Hanover,VA,37.7632000000,-77.3333220000
9352,23070,US,Hardyville,VA,37.5596010000,-76.3894990000
9353,23071,US,Hartfield,VA,37.5427110000,-76.4396980000
9354,23072,US,Hayes,VA,37.3047300000,-76.4837100000
9355,23075,US,Henrico,VA,37.5496820000,-77.3163750000
9356,23076,US,Hudgins,VA,37.4756160000,-76.3164600000
9357,23079,US,Jamaica,VA,37.7308060000,-76.6723380000
9358,23081,US,Jamestown,VA,37.2081000000,-76.7746000000
9359,23083,US,Jetersville,VA,37.3226320000,-78.1134060000
9360,23084,US,Kents Store,VA,37.8802510000,-78.1065090000
9361,23085,US,King And Queen Court House,VA,37.7261380000,-76.8310940000
9362,23086,US,King William,VA,37.6632680000,-77.0454240000
9363,23089,US,Lanexa,VA,37.4637670000,-76.8948400000
9364,23090,US,Lightfoot,VA,37.3409000000,-76.7549000000
9365,23091,US,Little Plymouth,VA,37.6521410000,-76.7924080000
9366,23092,US,Locust Hill,VA,37.5887120000,-76.5104680000
9367,23093,US,Louisa,VA,37.9871070000,-78.0570940000
9368,23102,US,Maidens,VA,37.7188750000,-77.8286720000
9369,23103,US,Manakin Sabot,VA,37.6463260000,-77.7272020000
9370,23105,US,Mannboro,VA,37.2517000000,-77.8238000000
9371,23106,US,Manquin,VA,37.7258540000,-77.2083910000
9372,23107,US,Maryus,VA,37.2795000000,-76.4034000000
9373,23108,US,Mascot,VA,37.6188380000,-76.7301620000
9374,23109,US,Mathews,VA,37.4373400000,-76.3324340000
9375,23110,US,Mattaponi,VA,37.5624250000,-76.7787580000
9376,23111,US,Mechanicsville,VA,37.6134140000,-77.2571540000
9377,23112,US,Midlothian,VA,37.4381130000,-77.6724600000
9378,23113,US,Midlothian,VA,37.5458260000,-77.6707410000
9379,23114,US,Midlothian,VA,37.4864500000,-77.6592820000
9380,23115,US,Millers Tavern,VA,37.8063280000,-76.9182180000
9381,23116,US,Mechanicsville,VA,37.6754560000,-77.3250200000
9382,23117,US,Mineral,VA,37.9655380000,-77.8837050000
9383,23119,US,Moon,VA,37.4450360000,-76.2723340000
9384,23120,US,Moseley,VA,37.4133280000,-77.7815820000
9385,23123,US,New Canton,VA,37.6423280000,-78.2956520000
9386,23124,US,New Kent,VA,37.5492080000,-77.0446270000
9387,23125,US,New Point,VA,37.3476840000,-76.2806130000
9388,23126,US,Newtown,VA,37.9183460000,-77.1438930000
9389,23127,US,Norge,VA,37.3688000000,-76.7709000000
9390,23128,US,North,VA,37.4625410000,-76.3765280000
9391,23129,US,Oilville,VA,37.7008880000,-77.7856740000
9392,23130,US,Onemo,VA,37.3977200000,-76.2773780000
9393,23131,US,Ordinary,VA,37.3155000000,-76.5139000000
9394,23138,US,Port Haywood,VA,37.3749550000,-76.3013510000
9395,23139,US,Powhatan,VA,37.5529070000,-77.9410960000
9396,23140,US,Providence Forge,VA,37.4322860000,-77.0221100000
9397,23141,US,Quinton,VA,37.5283660000,-77.1553100000
9398,23146,US,Rockville,VA,37.7238640000,-77.7124760000
9399,23147,US,Ruthville,VA,37.3672000000,-77.0414000000
9400,23148,US,Saint Stephens Church,VA,37.8608600000,-77.0555190000
9401,23149,US,Saluda,VA,37.5736900000,-76.5992190000
9402,23150,US,Sandston,VA,37.5037660000,-77.2635130000
9403,23153,US,Sandy Hook,VA,37.7834120000,-77.9415050000
9404,23154,US,Schley,VA,37.3897000000,-76.4556000000
9405,23155,US,Severn,VA,37.2943000000,-76.4156000000
9406,23156,US,Shacklefords,VA,37.5385180000,-76.7138540000
9407,23160,US,State Farm,VA,37.6451690000,-77.8446390000
9408,23161,US,Stevensville,VA,37.7155550000,-76.9260870000
9409,23162,US,Studley,VA,37.6756000000,-77.2911000000
9410,23163,US,Susan,VA,37.3410740000,-76.3050510000
9411,23168,US,Toano,VA,37.3915500000,-76.8309290000
9412,23169,US,Topping,VA,37.5929540000,-76.4539540000
9413,23170,US,Trevilians,VA,38.0516000000,-78.0732000000
9414,23173,US,Richmond,VA,37.5755480000,-77.5421780000
9415,23175,US,Urbanna,VA,37.6493840000,-76.6074560000
9416,23176,US,Wake,VA,37.5663100000,-76.4296440000
9417,23177,US,Walkerton,VA,37.7454590000,-77.0133020000
9418,23178,US,Ware Neck,VA,37.3970910000,-76.4580120000
9419,23180,US,Water View,VA,37.7052820000,-76.6115820000
9420,23181,US,West Point,VA,37.5879400000,-76.8916440000
9421,23183,US,White Marsh,VA,37.3423000000,-76.5219000000
9422,23184,US,Wicomico,VA,37.2851830000,-76.5298010000
9423,23185,US,Williamsburg,VA,37.2339510000,-76.7364720000
9424,23186,US,Williamsburg,VA,37.2694650000,-76.7251210000
9425,23187,US,Williamsburg,VA,37.2707000000,-76.7078000000
9426,23188,US,Williamsburg,VA,37.3581680000,-76.7418680000
9427,23190,US,Woods Cross Roads,VA,37.4817000000,-76.6191000000
9428,23192,US,Montpelier,VA,37.8259440000,-77.6733480000
9429,23218,US,Richmond,VA,37.5539000000,-77.4608000000
9430,23219,US,Richmond,VA,37.5408470000,-77.4392980000
9431,23220,US,Richmond,VA,37.5513250000,-77.4587570000
9432,23221,US,Richmond,VA,37.5520950000,-77.5000730000
9433,23222,US,Richmond,VA,37.5813140000,-77.4154300000
9434,23223,US,Richmond,VA,37.5581980000,-77.3769670000
9435,23224,US,Richmond,VA,37.4964020000,-77.4708360000
9436,23225,US,Richmond,VA,37.5168780000,-77.4994020000
9437,23226,US,Richmond,VA,37.5843980000,-77.5180460000
9438,23227,US,Richmond,VA,37.6149520000,-77.4420990000
9439,23228,US,Henrico,VA,37.6243420000,-77.4962770000
9440,23229,US,Henrico,VA,37.5938790000,-77.5748000000
9441,23230,US,Richmond,VA,37.5866490000,-77.4898590000
9442,23231,US,Henrico,VA,37.4435720000,-77.2995000000
9443,23232,US,Richmond,VA,37.5440000000,-77.4507000000
9444,23233,US,Henrico,VA,37.6511780000,-77.6196900000
9445,23234,US,Richmond,VA,37.4584220000,-77.4697990000
9446,23235,US,Richmond,VA,37.5026140000,-77.5694160000
9447,23236,US,Richmond,VA,37.4677810000,-77.5884800000
9448,23237,US,Richmond,VA,37.3997060000,-77.4751970000
9449,23238,US,Henrico,VA,37.6071680000,-77.6365980000
9450,23241,US,Richmond,VA,37.5537000000,-77.4609000000
9451,23242,US,Henrico,VA,37.5603000000,-77.4602000000
9452,23249,US,Richmond,VA,37.5537000000,-77.4609000000
9453,23250,US,Richmond,VA,37.5054500000,-77.3199290000
9454,23255,US,Henrico,VA,37.5483000000,-77.3953000000
9455,23260,US,Richmond,VA,37.5537000000,-77.4609000000
9456,23261,US,Richmond,VA,37.5537000000,-77.4609000000
9457,23269,US,Richmond,VA,37.5537000000,-77.4609000000
9458,23273,US,Henrico,VA,37.5537000000,-77.4609000000
9459,23274,US,Richmond,VA,37.5537000000,-77.4609000000
9460,23276,US,Richmond,VA,37.5537000000,-77.4609000000
9461,23278,US,Richmond,VA,37.5537000000,-77.4609000000
9462,23279,US,Richmond,VA,37.5537000000,-77.4609000000
9463,23282,US,Richmond,VA,37.5537000000,-77.4609000000
9464,23284,US,Richmond,VA,37.5537000000,-77.4609000000
9465,23285,US,Richmond,VA,37.5537000000,-77.4609000000
9466,23286,US,Richmond,VA,37.5537000000,-77.4609000000
9467,23288,US,Henrico,VA,37.5944000000,-77.5568000000
9468,23289,US,Richmond,VA,37.5436000000,-77.4487000000
9469,23290,US,Richmond,VA,37.5537000000,-77.4609000000
9470,23291,US,Richmond,VA,37.5537000000,-77.4609000000
9471,23292,US,Richmond,VA,37.5537000000,-77.4609000000
9472,23293,US,Richmond,VA,37.5537000000,-77.4609000000
9473,23294,US,Henrico,VA,37.6280060000,-77.5436970000
9474,23295,US,Richmond,VA,37.5537000000,-77.4609000000
9475,23297,US,Richmond,VA,37.4528000000,-77.4743000000
9476,23298,US,Richmond,VA,37.5427870000,-77.4296510000
9477,23301,US,Accomac,VA,37.6703500000,-75.6570080000
9478,23302,US,Assawoman,VA,37.8560540000,-75.5282350000
9479,23303,US,Atlantic,VA,37.9024880000,-75.5175000000
9480,23304,US,Battery Park,VA,36.9918030000,-76.5696490000
9481,23306,US,Belle Haven,VA,37.5845480000,-75.8708620000
9482,23307,US,Birdsnest,VA,37.4176320000,-75.7942530000
9483,23308,US,Bloxom,VA,37.8142010000,-75.5987570000
9484,23310,US,Cape Charles,VA,37.2158560000,-75.9026520000
9485,23313,US,Capeville,VA,37.2047000000,-75.9584000000
9486,23314,US,Carrollton,VA,36.9651320000,-76.5180110000
9487,23315,US,Carrsville,VA,36.7316120000,-76.8389240000
9488,23316,US,Cheriton,VA,37.2835410000,-75.9673270000
9489,23320,US,Chesapeake,VA,36.7640630000,-76.1994080000
9490,23321,US,Chesapeake,VA,36.8069460000,-76.4143460000
9491,23322,US,Chesapeake,VA,36.6430750000,-76.2784720000
9492,23323,US,Chesapeake,VA,36.7028940000,-76.3729100000
9493,23324,US,Chesapeake,VA,36.8015200000,-76.2765210000
9494,23325,US,Chesapeake,VA,36.8136950000,-76.2387360000
9495,23326,US,Chesapeake,VA,36.8187000000,-76.2753000000
9496,23327,US,Chesapeake,VA,36.8187000000,-76.2753000000
9497,23328,US,Chesapeake,VA,36.8187000000,-76.2753000000
9498,23336,US,Chincoteague Island,VA,37.9420390000,-75.3262640000
9499,23337,US,Wallops Island,VA,37.8683820000,-75.4536980000
9500,23341,US,Craddockville,VA,37.5850000000,-75.8686000000
9501,23345,US,Davis Wharf,VA,37.5564000000,-75.8751000000
9502,23347,US,Eastville,VA,37.3509940000,-75.9393610000
9503,23350,US,Exmore,VA,37.5128610000,-75.8765860000
9504,23354,US,Franktown,VA,37.4748320000,-75.8980660000
9505,23356,US,Greenbackville,VA,38.0001600000,-75.4100180000
9506,23357,US,Greenbush,VA,37.7628430000,-75.6807580000
9507,23358,US,Hacksneck,VA,37.6454220000,-75.8634870000
9508,23359,US,Hallwood,VA,37.8796500000,-75.5894960000
9509,23389,US,Harborton,VA,37.6501010000,-75.8287050000
9510,23395,US,Horntown,VA,37.9743350000,-75.4711740000
9511,23396,US,Oak Hall,VA,37.9340000000,-75.5755000000
9512,23397,US,Isle Of Wight,VA,36.9126000000,-76.7167000000
9513,23398,US,Jamesville,VA,37.5176000000,-75.9329000000
9514,23399,US,Jenkins Bridge,VA,37.9147000000,-75.6330000000
9515,23401,US,Keller,VA,37.6270590000,-75.7790510000
9516,23404,US,Locustville,VA,37.6363390000,-75.6744920000
9517,23405,US,Machipongo,VA,37.4241920000,-75.9135580000
9518,23407,US,Mappsville,VA,37.8396070000,-75.5388990000
9519,23408,US,Marionville,VA,37.4464000000,-75.8452000000
9520,23409,US,Mears,VA,37.8767920000,-75.6455690000
9521,23410,US,Melfa,VA,37.6217880000,-75.7583370000
9522,23412,US,Modest Town,VA,37.8159000000,-75.5687000000
9523,23413,US,Nassawadox,VA,37.4459210000,-75.7813370000
9524,23414,US,Nelsonia,VA,37.8258000000,-75.5885000000
9525,23415,US,New Church,VA,37.9567510000,-75.5309080000
9526,23416,US,Oak Hall,VA,37.9497060000,-75.5911500000
9527,23417,US,Onancock,VA,37.7341160000,-75.7773360000
9528,23418,US,Onley,VA,37.6697130000,-75.6874470000
9529,23419,US,Oyster,VA,37.2875000000,-75.9257000000
9530,23420,US,Painter,VA,37.5708360000,-75.7433100000
9531,23421,US,Parksley,VA,37.7858770000,-75.6276460000
9532,23422,US,Pungoteague,VA,37.6328000000,-75.8161000000
9533,23423,US,Quinby,VA,37.5236500000,-75.7030980000
9534,23424,US,Rescue,VA,36.9963000000,-76.5627000000
9535,23426,US,Sanford,VA,37.9213440000,-75.6874390000
9536,23427,US,Saxis,VA,37.9157920000,-75.7174100000
9537,23429,US,Seaview,VA,37.2628000000,-75.9483000000
9538,23430,US,Smithfield,VA,37.0121400000,-76.6644170000
9539,23431,US,Smithfield,VA,36.9796000000,-76.6215000000
9540,23432,US,Suffolk,VA,36.8768680000,-76.5588780000
9541,23433,US,Suffolk,VA,36.9140620000,-76.4715200000
9542,23434,US,Suffolk,VA,36.7040660000,-76.6170110000
9543,23435,US,Suffolk,VA,36.8470200000,-76.4789120000
9544,23436,US,Suffolk,VA,36.8951400000,-76.5173560000
9545,23437,US,Suffolk,VA,36.6403250000,-76.8013370000
9546,23438,US,Suffolk,VA,36.5930500000,-76.7245670000
9547,23439,US,Suffolk,VA,36.7283000000,-76.5838000000
9548,23440,US,Tangier,VA,37.8782060000,-76.0091420000
9549,23441,US,Tasley,VA,37.7126330000,-75.6991680000
9550,23442,US,Temperanceville,VA,37.8898530000,-75.5618140000
9551,23443,US,Townsend,VA,37.1856000000,-75.9601000000
9552,23450,US,Virginia Beach,VA,36.8598000000,-75.9812000000
9553,23451,US,Virginia Beach,VA,36.8572140000,-76.0281800000
9554,23452,US,Virginia Beach,VA,36.8493960000,-76.0955340000
9555,23453,US,Virginia Beach,VA,36.7822180000,-76.0778540000
9556,23454,US,Virginia Beach,VA,36.8261220000,-76.0261480000
9557,23455,US,Virginia Beach,VA,36.9190170000,-76.1433520000
9558,23456,US,Virginia Beach,VA,36.6748300000,-76.0114690000
9559,23457,US,Virginia Beach,VA,36.6228130000,-76.0213970000
9560,23458,US,Virginia Beach,VA,36.8525000000,-75.9786000000
9561,23459,US,Virginia Beach,VA,36.9203310000,-76.0187700000
9562,23460,US,Virginia Beach,VA,36.8126800000,-76.0340700000
9563,23461,US,Virginia Beach,VA,36.7856310000,-75.9607230000
9564,23462,US,Virginia Beach,VA,36.8356880000,-76.1466100000
9565,23463,US,Virginia Beach,VA,36.7985510000,-76.1926940000
9566,23464,US,Virginia Beach,VA,36.7986710000,-76.1781120000
9567,23465,US,Virginia Beach,VA,36.8526000000,-75.9783000000
9568,23466,US,Virginia Beach,VA,36.8526000000,-75.9783000000
9569,23467,US,Virginia Beach,VA,36.8526000000,-75.9783000000
9570,23471,US,Virginia Beach,VA,36.8598000000,-75.9812000000
9571,23479,US,Virginia Beach,VA,36.8526000000,-75.9783000000
9572,23480,US,Wachapreague,VA,37.6043250000,-75.6738780000
9573,23482,US,Wardtown,VA,37.5375000000,-75.8714000000
9574,23483,US,Wattsville,VA,37.9362000000,-75.5006000000
9575,23486,US,Willis Wharf,VA,37.5178000000,-75.8103000000
9576,23487,US,Windsor,VA,36.8627530000,-76.7143260000
9577,23488,US,Withams,VA,37.9501770000,-75.6060140000
9578,23501,US,Norfolk,VA,36.8511000000,-76.2784000000
9579,23502,US,Norfolk,VA,36.8567490000,-76.2125140000
9580,23503,US,Norfolk,VA,36.9480560000,-76.2569830000
9581,23504,US,Norfolk,VA,36.8627640000,-76.2613550000
9582,23505,US,Norfolk,VA,36.9107200000,-76.2987400000
9583,23506,US,Norfolk,VA,36.8468000000,-76.2859000000
9584,23507,US,Norfolk,VA,36.8655510000,-76.3021950000
9585,23508,US,Norfolk,VA,36.8824510000,-76.3083380000
9586,23509,US,Norfolk,VA,36.8820820000,-76.2630580000
9587,23510,US,Norfolk,VA,36.8522000000,-76.2941560000
9588,23511,US,Norfolk,VA,36.9404190000,-76.3001300000
9589,23512,US,Norfolk,VA,36.8468000000,-76.2859000000
9590,23513,US,Norfolk,VA,36.8897340000,-76.2351760000
9591,23514,US,Norfolk,VA,36.8409000000,-76.2848000000
9592,23515,US,Norfolk,VA,36.8468000000,-76.2859000000
9593,23517,US,Norfolk,VA,36.8693730000,-76.2938160000
9594,23518,US,Norfolk,VA,36.9092980000,-76.2150430000
9595,23519,US,Norfolk,VA,36.8503000000,-76.2873000000
9596,23520,US,Norfolk,VA,36.9371000000,-76.2923000000
9597,23521,US,Norfolk,VA,36.9176660000,-76.1636550000
9598,23523,US,Norfolk,VA,36.8320480000,-76.2698690000
9599,23529,US,Norfolk,VA,36.8880040000,-76.3054080000
9600,23541,US,Norfolk,VA,36.8468000000,-76.2859000000
9601,23551,US,Norfolk,VA,36.8468000000,-76.2859000000
9602,23601,US,Newport News,VA,37.0467700000,-76.4853060000
9603,23602,US,Newport News,VA,37.1140940000,-76.5144280000
9604,23603,US,Newport News,VA,37.1921400000,-76.5675940000
9605,23604,US,Fort Eustis,VA,37.1205020000,-76.5949690000
9606,23605,US,Newport News,VA,37.0213450000,-76.4383770000
9607,23606,US,Newport News,VA,37.0650540000,-76.5281660000
9608,23607,US,Newport News,VA,36.9758980000,-76.4398790000
9609,23608,US,Newport News,VA,37.1546980000,-76.5457960000
9610,23609,US,Newport News,VA,36.9786000000,-76.4284000000
9611,23612,US,Newport News,VA,36.9786000000,-76.4284000000
9612,23628,US,Newport News,VA,36.9786000000,-76.4284000000
9613,23630,US,Hampton,VA,36.9786000000,-76.4284000000
9614,23651,US,Fort Monroe,VA,37.0083780000,-76.3047590000
9615,23661,US,Hampton,VA,37.0078320000,-76.3866360000
9616,23662,US,Poquoson,VA,37.1354360000,-76.3535880000
9617,23663,US,Hampton,VA,37.0339590000,-76.3196000000
9618,23664,US,Hampton,VA,37.0686660000,-76.2899510000
9619,23665,US,Hampton,VA,37.0880470000,-76.3864720000
9620,23666,US,Hampton,VA,37.0627820000,-76.4052200000
9621,23667,US,Hampton,VA,37.0190000000,-76.3561000000
9622,23668,US,Hampton,VA,37.0203660000,-76.3321270000
9623,23669,US,Hampton,VA,37.0506030000,-76.3491910000
9624,23670,US,Hampton,VA,37.0308000000,-76.3476000000
9625,23681,US,Hampton,VA,37.0301000000,-76.3403000000
9626,23690,US,Yorktown,VA,37.2371630000,-76.5516500000
9627,23691,US,Yorktown,VA,37.2437100000,-76.5794660000
9628,23692,US,Yorktown,VA,37.1784940000,-76.4707090000
9629,23693,US,Yorktown,VA,37.1211120000,-76.4473280000
9630,23694,US,Lackey,VA,37.2327000000,-76.5474000000
9631,23696,US,Seaford,VA,37.1917570000,-76.4265920000
9632,23701,US,Portsmouth,VA,36.8123240000,-76.3694500000
9633,23702,US,Portsmouth,VA,36.8040310000,-76.3234150000
9634,23703,US,Portsmouth,VA,36.8811480000,-76.3744700000
9635,23704,US,Portsmouth,VA,36.8220100000,-76.3171280000
9636,23705,US,Portsmouth,VA,36.8361000000,-76.2987000000
9637,23707,US,Portsmouth,VA,36.8412340000,-76.3363380000
9638,23708,US,Portsmouth,VA,36.8482330000,-76.3062100000
9639,23709,US,Portsmouth,VA,36.8200780000,-76.3009260000
9640,23801,US,Fort Lee,VA,37.2352650000,-77.3373320000
9641,23803,US,Petersburg,VA,37.2059620000,-77.4660900000
9642,23804,US,Petersburg,VA,37.2303000000,-77.4052000000
9643,23805,US,Petersburg,VA,37.1175150000,-77.4058580000
9644,23806,US,Virginia State University,VA,37.2382280000,-77.4197350000
9645,23821,US,Alberta,VA,36.8834080000,-77.9250960000
9646,23822,US,Ammon,VA,37.1609000000,-77.5883000000
9647,23824,US,Blackstone,VA,37.0847580000,-77.9543060000
9648,23827,US,Boykins,VA,36.6116060000,-77.2037560000
9649,23828,US,Branchville,VA,36.5944260000,-77.2871840000
9650,23829,US,Capron,VA,36.7331660000,-77.2316720000
9651,23830,US,Carson,VA,37.0196620000,-77.3833920000
9652,23831,US,Chester,VA,37.3359310000,-77.4572460000
9653,23832,US,Chesterfield,VA,37.4088340000,-77.6084720000
9654,23833,US,Church Road,VA,37.2100320000,-77.6666860000
9655,23834,US,Colonial Heights,VA,37.2879690000,-77.3891060000
9656,23836,US,Chester,VA,37.3572660000,-77.3252400000
9657,23837,US,Courtland,VA,36.7590840000,-77.0911620000
9658,23838,US,Chesterfield,VA,37.3221870000,-77.6378160000
9659,23839,US,Dendron,VA,37.0813560000,-76.9173240000
9660,23840,US,Dewitt,VA,37.0464710000,-77.6580620000
9661,23841,US,Dinwiddie,VA,37.0442740000,-77.5527020000
9662,23842,US,Disputanta,VA,37.1539980000,-77.2095730000
9663,23843,US,Dolphin,VA,36.8497520000,-77.8058000000
9664,23844,US,Drewryville,VA,36.6764860000,-77.3454490000
9665,23845,US,Ebony,VA,36.5905200000,-77.9901810000
9666,23846,US,Elberon,VA,37.0651560000,-76.8213560000
9667,23847,US,Emporia,VA,36.6883660000,-77.5329180000
9668,23850,US,Ford,VA,37.1633420000,-77.7514220000
9669,23851,US,Franklin,VA,36.6763180000,-76.9565120000
9670,23856,US,Freeman,VA,36.7907380000,-77.7161580000
9671,23857,US,Gasburg,VA,36.5775120000,-77.8911440000
9672,23860,US,Hopewell,VA,37.2746050000,-77.2257020000
9673,23866,US,Ivor,VA,36.9149260000,-76.8673960000
9674,23867,US,Jarratt,VA,36.8126530000,-77.4985220000
9675,23868,US,Lawrenceville,VA,36.7186820000,-77.8145380000
9676,23870,US,Jarratt,VA,36.8086000000,-77.4645000000
9677,23872,US,Mc Kenney,VA,36.9883980000,-77.7357140000
9678,23873,US,Meredithville,VA,36.8068000000,-77.9567000000
9679,23874,US,Newsoms,VA,36.6091280000,-77.1035660000
9680,23875,US,Prince George,VA,37.2419250000,-77.2672720000
9681,23876,US,Rawlings,VA,36.9473720000,-77.8395310000
9682,23878,US,Sedley,VA,36.8164540000,-77.0311120000
9683,23879,US,Skippers,VA,36.5944420000,-77.5918910000
9684,23881,US,Spring Grove,VA,37.2049400000,-76.9750240000
9685,23882,US,Stony Creek,VA,36.9134080000,-77.3955060000
9686,23883,US,Surry,VA,37.1426470000,-76.7453770000
9687,23884,US,Sussex,VA,36.9150000000,-77.2794000000
9688,23885,US,Sutherland,VA,37.1797300000,-77.5768440000
9689,23887,US,Valentines,VA,36.5722020000,-77.8145260000
9690,23888,US,Wakefield,VA,36.9463920000,-76.9747580000
9691,23889,US,Warfield,VA,36.8945270000,-77.7476580000
9692,23890,US,Waverly,VA,36.9973020000,-77.1047580000
9693,23891,US,Waverly,VA,37.0394000000,-77.1013000000
9694,23893,US,White Plains,VA,36.6007020000,-77.9138360000
9695,23894,US,Wilsons,VA,37.1293100000,-77.8417890000
9696,23897,US,Yale,VA,36.8238980000,-77.2960840000
9697,23898,US,Zuni,VA,36.8323000000,-76.8584370000
9698,23899,US,Claremont,VA,37.2224780000,-76.9640660000
9699,23901,US,Farmville,VA,37.2963360000,-78.4076590000
9700,23909,US,Farmville,VA,37.3005180000,-78.3978490000
9701,23915,US,Baskerville,VA,36.7101590000,-78.2780960000
9702,23917,US,Boydton,VA,36.6404710000,-78.2699510000
9703,23919,US,Bracey,VA,36.5962250000,-78.1436880000
9704,23920,US,Brodnax,VA,36.7241170000,-77.9805420000
9705,23921,US,Buckingham,VA,37.6178960000,-78.6057220000
9706,23922,US,Burkeville,VA,37.1819280000,-78.2231160000
9707,23923,US,Charlotte Court House,VA,37.0886250000,-78.6464680000
9708,23924,US,Chase City,VA,36.8098190000,-78.4180400000
9709,23927,US,Clarksville,VA,36.6349100000,-78.4805980000
9710,23930,US,Crewe,VA,37.1420580000,-78.0897070000
9711,23934,US,Cullen,VA,37.1493400000,-78.6251860000
9712,23936,US,Dillwyn,VA,37.5263970000,-78.4951960000
9713,23937,US,Drakes Branch,VA,36.9340180000,-78.5272940000
9714,23938,US,Dundas,VA,36.9112400000,-78.0219220000
9715,23939,US,Evergreen,VA,37.3148290000,-78.7703760000
9716,23941,US,Fort Mitchell,VA,36.9183000000,-78.4865000000
9717,23942,US,Green Bay,VA,37.1371080000,-78.3017460000
9718,23943,US,Hampden Sydney,VA,37.2416820000,-78.4726590000
9719,23944,US,Kenbridge,VA,36.9039420000,-78.1824220000
9720,23947,US,Keysville,VA,37.0404540000,-78.4608900000
9721,23950,US,La Crosse,VA,36.6787560000,-78.0760250000
9722,23952,US,Lunenburg,VA,36.9168400000,-78.2757320000
9723,23954,US,Meherrin,VA,37.0774760000,-78.3827030000
9724,23955,US,Nottoway,VA,37.1292000000,-78.0783000000
9725,23958,US,Pamplin,VA,37.2762630000,-78.6204820000
9726,23959,US,Phenix,VA,37.0975000000,-78.8042530000
9727,23960,US,Prospect,VA,37.3203310000,-78.5512040000
9728,23962,US,Randolph,VA,36.9524400000,-78.7132340000
9729,23963,US,Red House,VA,37.1898880000,-78.8214160000
9730,23964,US,Red Oak,VA,36.7740120000,-78.6236530000
9731,23966,US,Rice,VA,37.3069880000,-78.2837420000
9732,23967,US,Saxe,VA,36.9257150000,-78.6187060000
9733,23968,US,Skipwith,VA,36.7252980000,-78.5161610000
9734,23970,US,South Hill,VA,36.7445340000,-78.1865640000
9735,23974,US,Victoria,VA,36.9660860000,-78.2589680000
9736,23976,US,Wylliesburg,VA,36.8430280000,-78.6216540000
9737,24001,US,Roanoke,VA,37.2709000000,-79.9418000000
9738,24002,US,Roanoke,VA,37.2709000000,-79.9418000000
9739,24003,US,Roanoke,VA,37.2709000000,-79.9418000000
9740,24004,US,Roanoke,VA,37.2709000000,-79.9418000000
9741,24005,US,Roanoke,VA,37.2709000000,-79.9418000000
9742,24006,US,Roanoke,VA,37.2709000000,-79.9418000000
9743,24007,US,Roanoke,VA,37.2709000000,-79.9418000000
9744,24008,US,Roanoke,VA,37.2709000000,-79.9418000000
9745,24009,US,Roanoke,VA,37.2709000000,-79.9418000000
9746,24010,US,Roanoke,VA,37.2709000000,-79.9418000000
9747,24011,US,Roanoke,VA,37.2707940000,-79.9413540000
9748,24012,US,Roanoke,VA,37.3240450000,-79.9006990000
9749,24013,US,Roanoke,VA,37.2651400000,-79.9229400000
9750,24014,US,Roanoke,VA,37.2181980000,-79.9104440000
9751,24015,US,Roanoke,VA,37.2542030000,-79.9764830000
9752,24016,US,Roanoke,VA,37.2705340000,-79.9592810000
9753,24017,US,Roanoke,VA,37.2958690000,-79.9885090000
9754,24018,US,Roanoke,VA,37.2167140000,-80.0386420000
9755,24019,US,Roanoke,VA,37.3420660000,-79.9553250000
9756,24020,US,Roanoke,VA,37.3570950000,-79.9410990000
9757,24022,US,Roanoke,VA,37.2709000000,-79.9418000000
9758,24023,US,Roanoke,VA,37.2743000000,-79.9358000000
9759,24024,US,Roanoke,VA,37.2709000000,-79.9418000000
9760,24025,US,Roanoke,VA,37.2709000000,-79.9418000000
9761,24026,US,Roanoke,VA,37.2709000000,-79.9418000000
9762,24027,US,Roanoke,VA,37.2709000000,-79.9418000000
9763,24028,US,Roanoke,VA,37.2709000000,-79.9418000000
9764,24029,US,Roanoke,VA,37.2709000000,-79.9418000000
9765,24030,US,Roanoke,VA,37.2709000000,-79.9418000000
9766,24031,US,Roanoke,VA,37.2709000000,-79.9418000000
9767,24032,US,Roanoke,VA,37.2709000000,-79.9418000000
9768,24033,US,Roanoke,VA,37.2709000000,-79.9418000000
9769,24034,US,Roanoke,VA,37.2709000000,-79.9418000000
9770,24035,US,Roanoke,VA,37.2709000000,-79.9418000000
9771,24036,US,Roanoke,VA,37.2709000000,-79.9418000000
9772,24037,US,Roanoke,VA,37.2709000000,-79.9418000000
9773,24038,US,Roanoke,VA,37.2709000000,-79.9418000000
9774,24040,US,Roanoke,VA,37.2709000000,-79.9418000000
9775,24042,US,Roanoke,VA,37.2709000000,-79.9418000000
9776,24043,US,Roanoke,VA,37.2709000000,-79.9418000000
9777,24050,US,Roanoke,VA,37.3334000000,-79.9616000000
9778,24053,US,Ararat,VA,36.6209760000,-80.5044990000
9779,24054,US,Axton,VA,36.6795560000,-79.7080680000
9780,24055,US,Bassett,VA,36.7505670000,-79.9817540000
9781,24058,US,Belspring,VA,37.1919320000,-80.5695300000
9782,24059,US,Bent Mountain,VA,37.1544560000,-80.1268760000
9783,24060,US,Blacksburg,VA,37.2667570000,-80.4367650000
9784,24061,US,Blacksburg,VA,37.2286000000,-80.4149000000
9785,24062,US,Blacksburg,VA,37.2294000000,-80.4144000000
9786,24063,US,Blacksburg,VA,37.2294000000,-80.4144000000
9787,24064,US,Blue Ridge,VA,37.3895080000,-79.7700720000
9788,24065,US,Boones Mill,VA,37.1097380000,-79.9449680000
9789,24066,US,Buchanan,VA,37.5329460000,-79.6691030000
9790,24067,US,Callaway,VA,37.0509370000,-80.0604650000
9791,24068,US,Christiansburg,VA,37.1299000000,-80.4092000000
9792,24069,US,Cascade,VA,36.5953050000,-79.6164110000
9793,24070,US,Catawba,VA,37.3937710000,-80.1736100000
9794,24072,US,Check,VA,37.0295570000,-80.2349580000
9795,24073,US,Christiansburg,VA,37.1248300000,-80.4142560000
9796,24076,US,Claudville,VA,36.6084730000,-80.4501600000
9797,24077,US,Cloverdale,VA,37.3680440000,-79.9007280000
9798,24078,US,Collinsville,VA,36.7286100000,-79.9134490000
9799,24079,US,Copper Hill,VA,37.0495310000,-80.1601360000
9800,24082,US,Critz,VA,36.6210470000,-80.1319080000
9801,24083,US,Daleville,VA,37.4101960000,-79.9180680000
9802,24084,US,Dublin,VA,37.1284020000,-80.6950700000
9803,24085,US,Eagle Rock,VA,37.6847190000,-79.8429710000
9804,24086,US,Eggleston,VA,37.2793120000,-80.6550680000
9805,24087,US,Elliston,VA,37.2305470000,-80.2666920000
9806,24088,US,Ferrum,VA,36.8831060000,-80.0767450000
9807,24089,US,Fieldale,VA,36.7136210000,-79.9714140000
9808,24090,US,Fincastle,VA,37.5142470000,-79.8951580000
9809,24091,US,Floyd,VA,36.8998910000,-80.3282300000
9810,24092,US,Glade Hill,VA,36.9967860000,-79.7611390000
9811,24093,US,Glen Lyn,VA,37.3758970000,-80.8652220000
9812,24095,US,Goodview,VA,37.2113820000,-79.7586180000
9813,24101,US,Hardy,VA,37.1816250000,-79.8013100000
9814,24102,US,Henry,VA,36.8426230000,-79.9991360000
9815,24104,US,Huddleston,VA,37.1398440000,-79.4783260000
9816,24105,US,Indian Valley,VA,36.9036440000,-80.5822860000
9817,24111,US,Mc Coy,VA,37.2183000000,-80.5985000000
9818,24112,US,Martinsville,VA,36.7397340000,-79.8884120000
9819,24113,US,Martinsville,VA,36.6915000000,-79.8728000000
9820,24114,US,Martinsville,VA,36.6915000000,-79.8728000000
9821,24115,US,Martinsville,VA,36.6915000000,-79.8728000000
9822,24120,US,Meadows Of Dan,VA,36.7095620000,-80.4138340000
9823,24121,US,Moneta,VA,37.1723010000,-79.6268470000
9824,24122,US,Montvale,VA,37.4086580000,-79.6923810000
9825,24124,US,Narrows,VA,37.3059010000,-80.9121560000
9826,24126,US,Newbern,VA,37.0719000000,-80.6855000000
9827,24127,US,New Castle,VA,37.4882360000,-80.2223530000
9828,24128,US,Newport,VA,37.3185720000,-80.5202120000
9829,24129,US,New River,VA,37.1355000000,-80.5917000000
9830,24130,US,Oriskany,VA,37.6177000000,-79.9846000000
9831,24131,US,Paint Bank,VA,37.5775740000,-80.2398050000
9832,24132,US,Parrott,VA,37.2106490000,-80.6512600000
9833,24133,US,Patrick Springs,VA,36.6805910000,-80.1459130000
9834,24134,US,Pearisburg,VA,37.2551100000,-80.7516010000
9835,24136,US,Pembroke,VA,37.3584310000,-80.5673260000
9836,24137,US,Penhook,VA,36.9229140000,-79.6744190000
9837,24138,US,Pilot,VA,37.0585360000,-80.3236360000
9838,24139,US,Pittsville,VA,37.0077660000,-79.4794560000
9839,24141,US,Radford,VA,37.1147750000,-80.5937440000
9840,24142,US,Radford,VA,37.1386520000,-80.5505740000
9841,24143,US,Radford,VA,37.1319000000,-80.5767000000
9842,24146,US,Redwood,VA,37.0199000000,-79.8156000000
9843,24147,US,Rich Creek,VA,37.4009890000,-80.8401540000
9844,24148,US,Ridgeway,VA,36.5974440000,-79.8584360000
9845,24149,US,Riner,VA,37.0272880000,-80.4342800000
9846,24150,US,Ripplemead,VA,37.3983220000,-80.6046420000
9847,24151,US,Rocky Mount,VA,36.9621840000,-79.8633800000
9848,24153,US,Salem,VA,37.2834900000,-80.1192640000
9849,24155,US,Roanoke,VA,37.2935000000,-80.0553000000
9850,24157,US,Roanoke,VA,37.2935000000,-80.0553000000
9851,24161,US,Sandy Level,VA,36.9910380000,-79.5475600000
9852,24162,US,Shawsville,VA,37.1397560000,-80.2550320000
9853,24165,US,Spencer,VA,36.5883210000,-80.0668370000
9854,24167,US,Staffordsville,VA,37.2478520000,-80.7419090000
9855,24168,US,Stanleytown,VA,36.7353160000,-79.9486960000
9856,24171,US,Stuart,VA,36.6972290000,-80.2270430000
9857,24174,US,Thaxton,VA,37.3610960000,-79.6636610000
9858,24175,US,Troutville,VA,37.4168560000,-79.9314340000
9859,24176,US,Union Hall,VA,36.9945330000,-79.6705340000
9860,24177,US,Vesta,VA,36.7164000000,-80.3592000000
9861,24178,US,Villamont,VA,37.3961000000,-79.7790000000
9862,24179,US,Vinton,VA,37.2782860000,-79.7867560000
9863,24184,US,Wirtz,VA,37.0818520000,-79.7866500000
9864,24185,US,Woolwine,VA,36.8082040000,-80.2698940000
9865,24201,US,Bristol,VA,36.6146150000,-82.1748270000
9866,24202,US,Bristol,VA,36.6851220000,-82.2055980000
9867,24203,US,Bristol,VA,36.5965000000,-82.1889000000
9868,24205,US,Bristol,VA,,
9869,24209,US,Bristol,VA,36.5965000000,-82.1889000000
9870,24210,US,Abingdon,VA,36.7696860000,-82.0904720000
9871,24211,US,Abingdon,VA,36.6665060000,-81.9664820000
9872,24212,US,Abingdon,VA,36.7084000000,-81.9688000000
9873,24215,US,Andover,VA,36.9224060000,-82.7952790000
9874,24216,US,Appalachia,VA,36.9457260000,-82.7657570000
9875,24217,US,Bee,VA,37.0816370000,-82.2025740000
9876,24218,US,Ben Hur,VA,36.7339540000,-83.0652720000
9877,24219,US,Big Stone Gap,VA,36.8423720000,-82.7554260000
9878,24220,US,Birchleaf,VA,37.1577650000,-82.2357700000
9879,24221,US,Blackwater,VA,36.6440760000,-83.0225980000
9880,24224,US,Castlewood,VA,36.8662820000,-82.2553020000
9881,24225,US,Cleveland,VA,36.9909890000,-82.1165010000
9882,24226,US,Clinchco,VA,37.1296780000,-82.3301420000
9883,24228,US,Clintwood,VA,37.1708770000,-82.4400880000
9884,24230,US,Coeburn,VA,36.9723580000,-82.4908040000
9885,24236,US,Damascus,VA,36.6513560000,-81.7431180000
9886,24237,US,Dante,VA,37.0338610000,-82.2666100000
9887,24239,US,Davenport,VA,37.0620540000,-82.1288560000
9888,24243,US,Dryden,VA,36.8006880000,-82.9115700000
9889,24244,US,Duffield,VA,36.7131470000,-82.8320440000
9890,24245,US,Dungannon,VA,36.8159260000,-82.5149210000
9891,24246,US,East Stone Gap,VA,36.8702000000,-82.7398000000
9892,24248,US,Ewing,VA,36.6338600000,-83.5394920000
9893,24250,US,Fort Blackmore,VA,36.7750330000,-82.6294080000
9894,24251,US,Gate City,VA,36.7019360000,-82.6354760000
9895,24256,US,Haysi,VA,37.1989610000,-82.2784850000
9896,24258,US,Hiltons,VA,36.6520920000,-82.4289740000
9897,24260,US,Honaker,VA,37.0406000000,-81.9754870000
9898,24263,US,Jonesville,VA,36.6765820000,-83.1782040000
9899,24265,US,Keokee,VA,36.8325520000,-82.9560000000
9900,24266,US,Lebanon,VA,36.8960500000,-82.0254420000
9901,24269,US,Mc Clure,VA,37.0834010000,-82.3814640000
9902,24270,US,Mendota,VA,36.7138240000,-82.2577910000
9903,24271,US,Nickelsville,VA,36.7578500000,-82.4164560000
9904,24272,US,Nora,VA,37.0202160000,-82.3488840000
9905,24273,US,Norton,VA,36.9678510000,-82.6444390000
9906,24277,US,Pennington Gap,VA,36.7623980000,-83.0268140000
9907,24279,US,Pound,VA,37.1060260000,-82.6243750000
9908,24280,US,Rosedale,VA,36.9711320000,-81.8933530000
9909,24281,US,Rose Hill,VA,36.6461420000,-83.3362170000
9910,24282,US,Saint Charles,VA,36.8284830000,-83.0500900000
9911,24283,US,Saint Paul,VA,36.9424630000,-82.3637770000
9912,24290,US,Weber City,VA,36.6144340000,-82.5703390000
9913,24292,US,Whitetop,VA,36.6200990000,-81.5978260000
9914,24293,US,Wise,VA,37.0162010000,-82.6036290000
9915,24301,US,Pulaski,VA,37.0738740000,-80.7958000000
9916,24311,US,Atkins,VA,36.8836240000,-81.3885130000
9917,24312,US,Austinville,VA,36.8325130000,-80.8628760000
9918,24313,US,Barren Springs,VA,36.9067500000,-80.8115740000
9919,24314,US,Bastian,VA,37.1551710000,-81.2155830000
9920,24315,US,Bland,VA,37.1490720000,-81.0520190000
9921,24316,US,Broadford,VA,36.9416370000,-81.6513380000
9922,24317,US,Cana,VA,36.6109520000,-80.6769800000
9923,24318,US,Ceres,VA,37.0154640000,-81.3589770000
9924,24319,US,Chilhowie,VA,36.7581600000,-81.6430960000
9925,24322,US,Cripple Creek,VA,36.7972580000,-81.1076050000
9926,24323,US,Crockett,VA,36.8716580000,-81.2051530000
9927,24324,US,Draper,VA,36.9771670000,-80.7828120000
9928,24325,US,Dugspur,VA,36.8337640000,-80.6087310000
9929,24326,US,Elk Creek,VA,36.7250740000,-81.1913160000
9930,24327,US,Emory,VA,36.7705160000,-81.8198620000
9931,24328,US,Fancy Gap,VA,36.6571940000,-80.6993440000
9932,24330,US,Fries,VA,36.7174740000,-81.0259110000
9933,24333,US,Galax,VA,36.6694280000,-80.9400810000
9934,24340,US,Glade Spring,VA,36.7585740000,-81.7707800000
9935,24343,US,Hillsville,VA,36.7786720000,-80.6711890000
9936,24347,US,Hiwassee,VA,36.9585220000,-80.6669290000
9937,24348,US,Independence,VA,36.6412990000,-81.1818120000
9938,24350,US,Ivanhoe,VA,36.8214540000,-81.0087280000
9939,24351,US,Lambsburg,VA,36.5886780000,-80.7715320000
9940,24352,US,Laurel Fork,VA,36.7130550000,-80.5380600000
9941,24354,US,Marion,VA,36.8124680000,-81.5694800000
9942,24360,US,Max Meadows,VA,36.9599650000,-80.9036890000
9943,24361,US,Meadowview,VA,36.7663490000,-81.8504040000
9944,24363,US,Mouth Of Wilson,VA,36.6241360000,-81.3661980000
9945,24366,US,Rocky Gap,VA,37.2305820000,-81.1938470000
9946,24368,US,Rural Retreat,VA,36.8909220000,-81.2808280000
9947,24370,US,Saltville,VA,36.9212710000,-81.6919490000
9948,24374,US,Speedwell,VA,36.7891030000,-81.1982640000
9949,24375,US,Sugar Grove,VA,36.7760650000,-81.4002720000
9950,24377,US,Tannersville,VA,36.9873800000,-81.6136700000
9951,24378,US,Troutdale,VA,36.6967390000,-81.4601750000
9952,24380,US,Willis,VA,36.8806540000,-80.4949800000
9953,24381,US,Woodlawn,VA,36.7313920000,-80.8563600000
9954,24382,US,Wytheville,VA,36.9400420000,-81.1365380000
9955,24401,US,Staunton,VA,38.1413000000,-79.0646590000
9956,24402,US,Staunton,VA,38.1300000000,-79.1978000000
9957,24411,US,Augusta Springs,VA,38.1028000000,-79.3186000000
9958,24412,US,Bacova,VA,38.0579650000,-79.8495130000
9959,24413,US,Blue Grass,VA,38.5292680000,-79.5947280000
9960,24415,US,Brownsburg,VA,37.9366290000,-79.3220480000
9961,24416,US,Buena Vista,VA,37.7299540000,-79.3485460000
9962,24421,US,Churchville,VA,38.2533040000,-79.1510720000
9963,24422,US,Clifton Forge,VA,37.8241130000,-79.7488300000
9964,24426,US,Covington,VA,37.7785300000,-80.0497240000
9965,24430,US,Craigsville,VA,38.1100300000,-79.3404150000
9966,24431,US,Crimora,VA,38.1695610000,-78.8291100000
9967,24432,US,Deerfield,VA,38.1479080000,-79.4125950000
9968,24433,US,Doe Hill,VA,38.3960020000,-79.4861820000
9969,24435,US,Fairfield,VA,37.8770150000,-79.2945420000
9970,24437,US,Fort Defiance,VA,38.2111160000,-78.9331100000
9971,24438,US,Glen Wilton,VA,37.7528000000,-79.8195000000
9972,24439,US,Goshen,VA,38.0003530000,-79.4919180000
9973,24440,US,Greenville,VA,37.9866940000,-79.1349980000
9974,24441,US,Grottoes,VA,38.2311220000,-78.8358760000
9975,24442,US,Head Waters,VA,38.3038320000,-79.4315340000
9976,24445,US,Hot Springs,VA,37.9522050000,-79.9152360000
9977,24448,US,Iron Gate,VA,37.7985930000,-79.7895040000
9978,24450,US,Lexington,VA,37.7730960000,-79.5174400000
9979,24457,US,Low Moor,VA,37.8010140000,-79.8659330000
9980,24458,US,Mc Dowell,VA,38.3200140000,-79.5200660000
9981,24459,US,Middlebrook,VA,37.9987580000,-79.3190500000
9982,24460,US,Millboro,VA,38.0203240000,-79.6455870000
9983,24463,US,Mint Spring,VA,38.0632530000,-79.1106280000
9984,24464,US,Montebello,VA,37.8603610000,-79.0943830000
9985,24465,US,Monterey,VA,38.3806460000,-79.6432760000
9986,24467,US,Mount Sidney,VA,38.2668600000,-78.9673680000
9987,24468,US,Mustoe,VA,38.2959920000,-79.6596270000
9988,24469,US,New Hope,VA,38.1978000000,-78.9064000000
9989,24471,US,Port Republic,VA,38.3121900000,-78.7997650000
9990,24472,US,Raphine,VA,37.9436620000,-79.2149150000
9991,24473,US,Rockbridge Baths,VA,37.8962780000,-79.4188100000
9992,24474,US,Selma,VA,37.8051050000,-79.8473660000
9993,24476,US,Steeles Tavern,VA,37.9256000000,-79.2028000000
9994,24477,US,Stuarts Draft,VA,38.0129830000,-79.0447180000
9995,24479,US,Swoope,VA,38.1414580000,-79.2011460000
9996,24482,US,Verona,VA,38.2081480000,-78.9930430000
9997,24483,US,Vesuvius,VA,37.8031170000,-79.2290490000
9998,24484,US,Warm Springs,VA,38.1511640000,-79.8331460000
9999,24485,US,West Augusta,VA,38.2891920000,-79.3061550000
10000,24486,US,Weyers Cave,VA,38.2857800000,-78.9385640000
10001,24487,US,Williamsville,VA,38.1662280000,-79.6488280000
10002,24501,US,Lynchburg,VA,37.3596620000,-79.1570340000
10003,24502,US,Lynchburg,VA,37.3632400000,-79.2127030000
10004,24503,US,Lynchburg,VA,37.4487660000,-79.2383540000
10005,24504,US,Lynchburg,VA,37.3651080000,-79.0751780000
10006,24505,US,Lynchburg,VA,37.4136000000,-79.1427000000
10007,24506,US,Lynchburg,VA,37.4136000000,-79.1427000000
10008,24513,US,Lynchburg,VA,37.4140000000,-79.1401000000
10009,24514,US,Lynchburg,VA,37.4136000000,-79.1427000000
10010,24515,US,Lynchburg,VA,37.4136000000,-79.1427000000
10011,24517,US,Altavista,VA,37.1477950000,-79.2419420000
10012,24520,US,Alton,VA,36.6016880000,-79.0436610000
10013,24521,US,Amherst,VA,37.6235110000,-79.0922530000
10014,24522,US,Appomattox,VA,37.3547430000,-78.7659600000
10015,24523,US,Bedford,VA,37.3399220000,-79.5273710000
10016,24526,US,Big Island,VA,37.5289580000,-79.4044180000
10017,24527,US,Blairs,VA,36.7257330000,-79.3383860000
10018,24528,US,Brookneal,VA,37.0753760000,-78.8744520000
10019,24529,US,Buffalo Junction,VA,36.6160070000,-78.6435400000
10020,24530,US,Callands,VA,36.8058320000,-79.6423160000
10021,24531,US,Chatham,VA,36.8378000000,-79.4333800000
10022,24533,US,Clifford,VA,37.5832760000,-78.9384140000
10023,24534,US,Clover,VA,36.8841140000,-78.7478600000
10024,24535,US,Cluster Springs,VA,36.6185000000,-78.9294000000
10025,24536,US,Coleman Falls,VA,37.4884600000,-79.3173890000
10026,24538,US,Concord,VA,37.3505520000,-78.9627240000
10027,24539,US,Crystal Hill,VA,36.8642640000,-78.9006750000
10028,24540,US,Danville,VA,36.6529860000,-79.4471260000
10029,24541,US,Danville,VA,36.6209150000,-79.4889670000
10030,24543,US,Danville,VA,36.5862000000,-79.3953000000
10031,24549,US,Dry Fork,VA,36.7132000000,-79.5040740000
10032,24550,US,Evington,VA,37.2357880000,-79.2627960000
10033,24551,US,Forest,VA,37.3648860000,-79.3146460000
10034,24553,US,Gladstone,VA,37.5562800000,-78.8151450000
10035,24554,US,Gladys,VA,37.1359230000,-79.0893860000
10036,24555,US,Glasgow,VA,37.6758020000,-79.4750780000
10037,24556,US,Goode,VA,37.3708790000,-79.3997380000
10038,24557,US,Gretna,VA,36.9747280000,-79.2897740000
10039,24558,US,Halifax,VA,36.7747570000,-78.9655480000
10040,24562,US,Howardsville,VA,37.7236340000,-78.6493310000
10041,24563,US,Hurt,VA,37.0659000000,-79.2813820000
10042,24565,US,Java,VA,36.8496230000,-79.2016010000
10043,24566,US,Keeling,VA,36.7445440000,-79.2550940000
10044,24569,US,Long Island,VA,37.0451990000,-79.1359030000
10045,24570,US,Lowry,VA,37.3517550000,-79.4381540000
10046,24571,US,Lynch Station,VA,37.1364610000,-79.3653710000
10047,24572,US,Madison Heights,VA,37.4579240000,-79.0793340000
10048,24574,US,Monroe,VA,37.6187940000,-79.2589120000
10049,24576,US,Naruna,VA,37.1055000000,-79.0031000000
10050,24577,US,Nathalie,VA,36.9409680000,-78.9332450000
10051,24578,US,Natural Bridge,VA,37.6696980000,-79.5563010000
10052,24579,US,Natural Bridge Station,VA,37.5906720000,-79.5152420000
10053,24580,US,Nelson,VA,36.5866340000,-78.6687030000
10054,24581,US,Norwood,VA,37.6568210000,-78.7900850000
10055,24586,US,Ringgold,VA,36.6144400000,-79.2793120000
10056,24588,US,Rustburg,VA,37.2660940000,-79.0984690000
10057,24589,US,Scottsburg,VA,36.7475700000,-78.7328690000
10058,24590,US,Scottsville,VA,37.8026840000,-78.4868250000
10059,24592,US,South Boston,VA,36.6813080000,-78.9927970000
10060,24593,US,Spout Spring,VA,37.3718300000,-78.9109220000
10061,24594,US,Sutherlin,VA,36.6507640000,-79.1867360000
10062,24595,US,Sweet Briar,VA,37.5598430000,-79.0855940000
10063,24597,US,Vernon Hill,VA,36.7776070000,-79.1069430000
10064,24598,US,Virgilina,VA,36.6206170000,-78.7903240000
10065,24599,US,Wingina,VA,37.6229800000,-78.7295660000
10066,24601,US,Amonate,VA,37.1752010000,-81.6698520000
10067,24602,US,Bandy,VA,37.1694820000,-81.6277880000
10068,24603,US,Big Rock,VA,37.3207580000,-82.2391580000
10069,24604,US,Bishop,VA,37.2060000000,-81.5410860000
10070,24605,US,Bluefield,VA,37.2559090000,-81.3661980000
10071,24606,US,Boissevain,VA,37.2921800000,-81.3790550000
10072,24607,US,Breaks,VA,37.2817720000,-82.2726840000
10073,24608,US,Burkes Garden,VA,37.0984000000,-81.3411000000
10074,24609,US,Cedar Bluff,VA,37.0542320000,-81.7905340000
10075,24612,US,Doran,VA,37.0976650000,-81.8435540000
10076,24613,US,Falls Mills,VA,37.2689010000,-81.3339280000
10077,24614,US,Grundy,VA,37.3011880000,-82.0924700000
10078,24619,US,Horsepen,VA,37.2284000000,-81.5201000000
10079,24620,US,Hurley,VA,37.4314790000,-82.0291830000
10080,24622,US,Jewell Ridge,VA,37.2196060000,-81.8109760000
10081,24624,US,Keen Mountain,VA,37.2009650000,-81.9763530000
10082,24627,US,Mavisdale,VA,37.1879970000,-82.2198340000
10083,24628,US,Maxie,VA,37.3097140000,-82.2006040000
10084,24630,US,North Tazewell,VA,37.1665770000,-81.5226220000
10085,24631,US,Oakwood,VA,37.2167520000,-81.9885220000
10086,24634,US,Pilgrims Knob,VA,37.3002360000,-81.9032520000
10087,24635,US,Pocahontas,VA,37.3131430000,-81.3599330000
10088,24637,US,Pounding Mill,VA,37.0498000000,-81.7083840000
10089,24639,US,Raven,VA,37.1562230000,-81.8900640000
10090,24640,US,Red Ash,VA,37.1134000000,-81.8713000000
10091,24641,US,Richlands,VA,37.1299350000,-81.8058690000
10092,24646,US,Rowe,VA,37.1269780000,-82.0417730000
10093,24647,US,Shortt Gap,VA,37.1547000000,-81.8757000000
10094,24649,US,Swords Creek,VA,37.0820420000,-81.9113160000
10095,24651,US,Tazewell,VA,37.0494100000,-81.5220360000
10096,24656,US,Vansant,VA,37.1610010000,-82.1286100000
10097,24657,US,Whitewood,VA,37.2642790000,-81.8843100000
10098,24658,US,Wolford,VA,37.3646000000,-81.9914000000
